{"type":"FeatureCollection","properties":{"generated_by":"tools/prepare_zone_geometry.py","attribution":"see ATTRIBUTION.md beside this file","tolerance_degrees":0.05,"min_ring_degrees":0.1},"features":[{"type":"Feature","properties":{"zone":"AT00","role":"model","country":"AT"},"geometry":{"type":"MultiPolygon","coordinates":[[[[16.945,48.604],[16.844,48.366],[17.148,48.005],[17.004,47.863],[17.075,47.708],[16.797,47.675],[16.568,47.754],[16.408,47.661],[16.63,47.622],[16.689,47.538],[16.641,47.453],[16.434,47.397],[16.473,47.277],[16.413,47.187],[16.51,47.138],[16.425,47.024],[16.486,46.999],[16.275,47.004],[15.982,46.828],[16.017,46.671],[15.851,46.724],[15.636,46.718],[15.463,46.615],[15.062,46.65],[14.85,46.601],[14.54,46.379],[12.405,46.69],[12.267,46.868],[12.127,46.909],[12.181,47.085],[11.735,46.971],[11.174,46.964],[10.997,46.769],[10.486,46.846],[10.373,46.996],[10.111,46.847],[9.875,46.927],[9.858,47.015],[9.581,47.057],[9.521,47.263],[9.65,47.41],[9.547,47.535],[9.782,47.588],[10.023,47.488],[10.083,47.359],[10.209,47.372],[10.16,47.271],[10.428,47.396],[10.429,47.577],[10.859,47.531],[10.979,47.391],[11.237,47.394],[11.62,47.59],[12.174,47.605],[12.242,47.732],[12.239,47.679],[12.497,47.629],[12.762,47.667],[12.779,47.555],[13.002,47.466],[13.072,47.659],[12.892,47.724],[12.991,47.847],[12.745,48.121],[13.406,48.377],[13.455,48.573],[13.717,48.522],[13.816,48.766],[14.075,48.592],[14.325,48.559],[14.458,48.643],[14.676,48.576],[14.8,48.777],[14.94,48.763],[14.982,49.008],[15.818,48.872],[16.085,48.743],[16.358,48.727],[16.52,48.806],[16.873,48.719],[16.945,48.604]]]]}},{"type":"Feature","properties":{"zone":"BE00","role":"model","country":"BE"},"geometry":{"type":"MultiPolygon","coordinates":[[[[2.522,51.088],[3.349,51.375],[3.392,51.247],[3.61,51.29],[3.927,51.206],[4.221,51.368],[4.308,51.271],[4.261,51.369],[4.411,51.357],[4.429,51.462],[4.63,51.418],[4.779,51.495],[4.823,51.414],[4.762,51.413],[4.91,51.392],[5.028,51.477],[5.215,51.259],[5.493,51.287],[5.829,51.156],[5.624,50.83],[6.249,50.614],[6.171,50.518],[6.337,50.481],[6.375,50.315],[6.157,50.223],[6.117,50.12],[5.962,50.166],[5.719,49.891],[5.885,49.644],[5.837,49.561],[5.456,49.499],[5.259,49.691],[4.849,49.794],[4.86,49.913],[4.784,49.958],[4.863,50.148],[4.465,49.936],[4.132,49.975],[4.21,50.06],[4.126,50.128],[4.198,50.258],[4.003,50.344],[3.697,50.298],[3.608,50.477],[3.271,50.527],[3.129,50.779],[2.787,50.723],[2.587,50.845],[2.608,50.961],[2.522,51.088]]]]}},{"type":"Feature","properties":{"zone":"CH00","role":"model","country":"CH"},"geometry":{"type":"MultiPolygon","coordinates":[[[[10.454,46.864],[10.369,46.672],[10.459,46.624],[10.444,46.538],[10.192,46.627],[10.033,46.533],[10.026,46.446],[10.141,46.403],[10.118,46.231],[10.043,46.22],[9.918,46.371],[9.536,46.299],[9.435,46.498],[9.263,46.485],[9.225,46.231],[9.002,46.039],[9.063,45.899],[9.002,45.821],[8.9,45.826],[8.871,45.947],[8.768,45.983],[8.809,46.09],[8.438,46.235],[8.399,46.452],[8.087,46.272],[8.111,46.127],[7.831,45.914],[7.541,45.984],[7.067,45.89],[6.774,46.135],[6.787,46.414],[6.614,46.456],[6.302,46.394],[6.214,46.315],[6.281,46.24],[5.959,46.13],[5.959,46.212],[6.09,46.246],[6.136,46.359],[6.054,46.419],[6.118,46.583],[6.429,46.761],[6.443,46.944],[6.665,47.021],[7.037,47.33],[6.867,47.354],[6.973,47.489],[7.181,47.488],[7.238,47.417],[7.637,47.595],[7.683,47.544],[8.561,47.589],[8.607,47.656],[8.391,47.665],[8.558,47.801],[8.882,47.656],[9.273,47.65],[9.65,47.452],[9.487,47.21],[9.477,47.064],[9.858,47.015],[9.875,46.927],[10.111,46.847],[10.379,46.996],[10.454,46.864]]]]}},{"type":"Feature","properties":{"zone":"DE00","role":"model","country":"DE"},"geometry":{"type":"MultiPolygon","coordinates":[[[[6.325,49.457],[5.84,49.5],[5.791,49.538],[5.885,49.644],[5.722,49.813],[5.962,50.166],[6.117,50.12],[6.157,50.223],[6.375,50.315],[6.337,50.481],[6.171,50.518],[6.249,50.614],[5.973,50.782],[6.064,50.908],[5.858,51.019],[6.147,51.152],[6.057,51.212],[6.208,51.388],[6.193,51.509],[5.928,51.807],[6.156,51.842],[6.127,51.897],[6.345,51.821],[6.744,51.908],[6.809,51.98],[6.68,52.06],[7.026,52.231],[7.048,52.365],[6.973,52.451],[6.715,52.462],[6.672,52.542],[6.737,52.635],[7.018,52.626],[7.193,52.998],[7.195,53.245],[7.255,53.32],[7.367,53.303],[7.038,53.349],[7.051,53.513],[7.142,53.537],[7.087,53.587],[7.305,53.685],[7.951,53.722],[8.168,53.553],[8.059,53.502],[8.086,53.456],[8.205,53.411],[8.315,53.475],[8.231,53.525],[8.271,53.613],[8.552,53.544],[8.504,53.358],[8.566,53.547],[8.486,53.7],[8.652,53.892],[8.861,53.831],[9.275,53.865],[9.567,53.6],[9.832,53.544],[9.584,53.612],[9.395,53.831],[8.916,53.937],[8.833,54.036],[8.997,54.03],[9.018,54.098],[8.813,54.18],[8.963,54.318],[8.678,54.269],[8.6,54.338],[9.012,54.506],[8.689,54.735],[8.661,54.896],[9.244,54.802],[9.58,54.866],[9.824,54.757],[9.948,54.78],[10.018,54.701],[9.929,54.674],[10.039,54.667],[10.027,54.56],[9.84,54.475],[10.143,54.492],[10.204,54.461],[10.142,54.324],[10.318,54.443],[10.731,54.31],[11.136,54.386],[11.067,54.359],[11.067,54.184],[10.753,54.05],[10.887,53.964],[11.175,54.018],[11.458,53.906],[11.69,54.155],[12.088,54.194],[12.115,54.098],[12.109,54.183],[12.534,54.488],[12.921,54.433],[12.438,54.388],[12.369,54.269],[12.681,54.411],[12.855,54.358],[13.034,54.434],[13.115,54.28],[13.465,54.098],[13.712,54.174],[13.808,54.105],[13.746,54.036],[13.908,53.934],[13.817,53.853],[14.264,53.752],[14.213,53.708],[14.442,53.252],[14.343,53.049],[14.144,52.96],[14.124,52.851],[14.645,52.577],[14.545,52.382],[14.712,52.236],[14.686,52.121],[14.761,52.077],[14.586,51.804],[14.732,51.658],[14.71,51.53],[14.955,51.435],[15.022,51.237],[14.911,50.993],[14.738,50.811],[14.613,50.846],[14.629,50.921],[14.55,50.912],[14.574,50.975],[14.482,51.037],[14.288,51.037],[14.238,50.982],[14.382,50.921],[14.347,50.88],[13.557,50.707],[13.448,50.597],[13.01,50.493],[12.953,50.404],[12.51,50.389],[12.3,50.161],[12.076,50.315],[12.247,50.045],[12.524,49.905],[12.384,49.743],[12.644,49.429],[13.0,49.295],[13.179,49.118],[13.459,48.945],[13.609,48.946],[13.816,48.766],[13.717,48.522],[13.455,48.573],[13.406,48.377],[12.739,48.113],[12.991,47.847],[12.892,47.724],[13.072,47.659],[13.002,47.466],[12.779,47.555],[12.762,47.667],[12.497,47.629],[12.239,47.679],[12.242,47.732],[12.174,47.605],[11.62,47.59],[11.237,47.394],[10.979,47.391],[10.859,47.531],[10.429,47.577],[10.428,47.396],[10.16,47.271],[10.209,47.372],[10.083,47.359],[9.946,47.541],[9.782,47.588],[9.613,47.522],[9.183,47.67],[8.882,47.656],[8.558,47.801],[8.391,47.665],[8.607,47.656],[8.574,47.592],[7.661,47.546],[7.515,47.686],[7.621,47.971],[7.579,48.114],[7.751,48.341],[7.81,48.615],[8.2,48.959],[7.635,49.038],[7.41,49.169],[7.274,49.105],[7.043,49.108],[6.914,49.207],[6.726,49.156],[6.512,49.425],[6.325,49.457]]],[[[8.354,54.619],[8.292,54.667],[8.36,54.715],[8.354,54.619]]],[[[11.468,53.971],[11.376,53.982],[11.468,54.031],[11.468,53.971]]],[[[14.193,53.894],[13.84,53.85],[13.932,53.899],[13.904,53.995],[14.048,53.941],[14.051,54.005],[13.946,54.067],[13.774,54.023],[13.815,54.101],[13.753,54.153],[14.017,54.06],[14.193,53.894]]],[[[13.74,54.33],[13.713,54.279],[13.617,54.318],[13.691,54.352],[13.5,54.345],[13.36,54.275],[13.407,54.228],[13.15,54.29],[13.149,54.377],[13.267,54.386],[13.157,54.427],[13.273,54.482],[13.143,54.543],[13.298,54.52],[13.369,54.585],[13.349,54.524],[13.507,54.488],[13.521,54.571],[13.253,54.565],[13.293,54.642],[13.225,54.635],[13.445,54.68],[13.408,54.593],[13.671,54.566],[13.579,54.455],[13.74,54.33]]],[[[11.175,54.416],[11.006,54.468],[11.207,54.514],[11.314,54.414],[11.175,54.416]]],[[[8.641,54.492],[8.602,54.53],[8.699,54.559],[8.641,54.492]]],[[[8.629,54.882],[8.337,54.878],[8.278,54.756],[8.416,55.065],[8.355,54.913],[8.629,54.882]]]]}},{"type":"Feature","properties":{"zone":"DKE1","role":"model","country":"DK"},"geometry":{"type":"MultiPolygon","coordinates":[[[[11.845,54.732],[11.811,54.655],[11.474,54.626],[10.999,54.787],[11.108,54.832],[11.032,54.919],[11.232,54.961],[11.595,54.811],[11.649,54.914],[11.845,54.732]]],[[[12.417,55.03],[12.543,54.951],[12.115,54.907],[12.287,54.989],[12.251,55.061],[12.417,55.03]]],[[[12.616,55.688],[12.675,55.601],[12.556,55.55],[12.52,55.619],[12.616,55.688]]],[[[12.04,54.893],[12.17,54.838],[11.961,54.694],[11.949,54.569],[11.711,54.941],[11.883,54.982],[11.616,55.092],[11.827,55.051],[11.718,55.126],[11.807,55.147],[11.718,55.208],[11.261,55.201],[11.19,55.345],[11.088,55.359],[11.214,55.404],[11.081,55.513],[11.132,55.595],[10.93,55.66],[11.088,55.66],[10.875,55.743],[11.193,55.7],[11.352,55.756],[11.348,55.838],[11.511,55.908],[11.273,55.997],[11.768,55.971],[11.663,55.907],[11.718,55.811],[11.608,55.783],[11.739,55.797],[11.763,55.749],[11.657,55.731],[11.78,55.66],[11.954,55.854],[11.935,55.934],[12.052,55.737],[11.91,55.66],[12.06,55.654],[12.026,55.941],[11.866,55.973],[12.245,56.129],[12.622,56.044],[12.513,55.928],[12.602,55.709],[12.198,55.487],[12.465,55.29],[12.015,55.167],[12.177,55.105],[12.149,54.994],[11.897,54.995],[11.89,54.93],[12.04,54.893]]]]}},{"type":"Feature","properties":{"zone":"DKW1","role":"model","country":"DK"},"geometry":{"type":"MultiPolygon","coordinates":[[[[8.661,54.896],[8.682,55.133],[8.459,55.103],[8.489,55.197],[8.689,55.142],[8.618,55.438],[8.442,55.464],[8.313,55.583],[8.239,55.558],[8.313,55.469],[8.095,55.549],[8.182,55.729],[8.128,55.988],[8.194,55.812],[8.393,55.909],[8.282,56.076],[8.15,56.111],[8.108,56.024],[8.179,56.672],[8.22,56.709],[8.307,56.554],[8.566,56.579],[8.727,56.483],[8.763,56.563],[8.682,56.627],[9.063,56.813],[9.176,56.709],[9.061,56.566],[9.155,56.661],[9.276,56.633],[9.326,56.53],[9.373,56.565],[9.294,56.561],[9.306,56.695],[9.169,56.689],[9.243,56.747],[9.175,56.806],[9.2,56.939],[9.916,57.059],[9.796,57.106],[9.245,57.002],[9.115,57.059],[8.68,56.953],[8.491,56.794],[8.527,56.695],[8.408,56.689],[8.586,56.689],[8.56,56.593],[8.302,56.764],[8.244,56.777],[8.246,56.704],[8.248,56.812],[8.618,57.123],[9.412,57.165],[9.967,57.591],[10.649,57.737],[10.43,57.571],[10.547,57.435],[10.539,57.237],[10.347,57.01],[9.927,57.059],[10.314,56.983],[10.266,56.908],[10.341,56.717],[9.806,56.64],[10.334,56.704],[10.34,56.62],[10.183,56.47],[10.33,56.603],[10.47,56.521],[10.822,56.534],[10.964,56.448],[10.912,56.334],[10.739,56.155],[10.629,56.238],[10.548,56.101],[10.355,56.202],[10.491,56.216],[10.505,56.278],[10.403,56.298],[10.22,56.148],[10.278,56.018],[10.182,55.834],[9.867,55.852],[10.046,55.814],[10.005,55.701],[9.556,55.712],[9.854,55.627],[9.498,55.489],[9.66,55.478],[9.587,55.427],[9.71,55.249],[9.486,55.156],[9.56,55.085],[9.434,55.038],[9.731,54.995],[9.746,54.836],[9.615,54.933],[9.317,54.802],[8.661,54.896]]],[[[10.45,54.9],[10.519,54.852],[10.383,54.831],[10.189,54.977],[10.45,54.9]]],[[[10.011,54.976],[10.064,54.881],[9.954,54.863],[9.781,54.917],[9.758,54.982],[9.848,54.948],[9.799,55.017],[9.628,55.058],[9.793,55.081],[10.011,54.976]]],[[[10.855,55.044],[10.934,55.16],[10.909,55.03],[10.694,54.735],[10.601,54.838],[10.855,55.044]]],[[[10.666,55.064],[10.066,55.092],[10.156,55.14],[10.004,55.197],[9.986,55.128],[9.885,55.349],[9.703,55.462],[9.812,55.441],[9.676,55.496],[10.308,55.618],[10.519,55.533],[10.42,55.459],[10.472,55.443],[10.609,55.493],[10.628,55.614],[10.742,55.487],[10.554,55.443],[10.698,55.44],[10.834,55.29],[10.773,55.287],[10.783,55.124],[10.666,55.064]]],[[[10.559,55.866],[10.544,55.998],[10.669,55.88],[10.582,55.76],[10.512,55.825],[10.559,55.866]]],[[[8.826,56.744],[8.658,56.678],[8.515,56.738],[8.669,56.826],[8.652,56.894],[8.916,56.979],[8.826,56.744]]],[[[11.142,57.332],[11.189,57.294],[11.067,57.291],[11.029,57.202],[10.855,57.265],[11.142,57.332]]]]}},{"type":"Feature","properties":{"zone":"EE00","role":"model","country":"EE"},"geometry":{"type":"MultiPolygon","coordinates":[[[[24.306,57.868],[24.551,58.334],[24.362,58.397],[24.112,58.241],[23.741,58.343],[23.679,58.524],[23.501,58.562],[23.498,58.697],[23.874,58.772],[23.429,58.765],[23.526,58.82],[23.422,58.929],[23.628,58.979],[23.56,59.053],[23.614,59.011],[23.553,58.971],[23.408,59.026],[23.518,59.073],[23.471,59.212],[24.081,59.271],[24.035,59.389],[24.222,59.355],[24.163,59.402],[24.334,59.471],[24.773,59.45],[24.803,59.571],[25.409,59.491],[25.544,59.535],[25.485,59.67],[25.677,59.566],[25.695,59.671],[25.826,59.575],[25.989,59.634],[26.938,59.45],[27.873,59.408],[28.019,59.482],[28.186,59.375],[27.882,59.276],[27.713,58.992],[27.478,58.875],[27.411,58.755],[27.555,58.395],[27.495,58.221],[27.63,58.088],[27.665,57.918],[27.799,57.861],[27.525,57.807],[27.328,57.583],[27.353,57.528],[26.873,57.627],[26.5,57.516],[26.025,57.774],[26.015,57.843],[25.602,57.912],[25.282,58.073],[25.232,57.985],[25.094,58.067],[24.306,57.868]]],[[[23.231,58.505],[23.325,58.442],[23.157,58.478],[22.723,58.225],[22.295,58.193],[22.203,57.994],[22.048,57.915],[21.963,57.984],[22.203,58.148],[21.844,58.294],[22.011,58.354],[21.832,58.511],[21.996,58.513],[22.089,58.422],[22.188,58.543],[22.273,58.502],[22.288,58.569],[22.55,58.63],[22.922,58.617],[23.231,58.505]]],[[[23.382,58.58],[23.235,58.535],[23.059,58.603],[23.198,58.681],[23.382,58.58]]],[[[23.364,59.029],[23.299,58.971],[23.114,59.022],[23.364,59.029]]],[[[22.292,58.895],[22.056,58.953],[22.463,58.971],[22.64,59.087],[22.934,58.984],[23.041,58.841],[22.845,58.777],[22.778,58.824],[22.556,58.687],[22.463,58.716],[22.43,58.852],[22.292,58.895]]]]}},{"type":"Feature","properties":{"zone":"ES00","role":"model","country":"ES"},"geometry":{"type":"MultiPolygon","coordinates":[[[[-1.794,43.386],[-1.747,43.291],[-1.404,43.243],[-1.457,43.045],[-1.286,43.109],[-1.15,43.006],[-0.76,42.947],[-0.569,42.773],[-0.323,42.843],[-0.039,42.685],[0.169,42.726],[0.275,42.669],[0.657,42.688],[0.656,42.838],[0.813,42.832],[1.343,42.709],[1.448,42.435],[1.707,42.503],[2.009,42.347],[2.277,42.429],[2.515,42.326],[2.934,42.47],[3.181,42.431],[3.187,42.35],[3.318,42.323],[3.119,42.218],[3.214,42.068],[3.195,41.888],[2.297,41.465],[2.131,41.304],[1.017,41.052],[0.714,40.815],[0.858,40.686],[0.677,40.565],[0.592,40.582],[0.733,40.634],[0.563,40.59],[-0.323,39.516],[-0.158,39.002],[0.235,38.742],[-0.51,38.338],[-0.504,38.207],[-0.624,38.162],[-0.761,37.796],[-0.856,37.742],[-0.705,37.62],[-1.324,37.562],[-1.671,37.363],[-1.813,37.207],[-1.9,36.941],[-2.127,36.736],[-2.362,36.837],[-2.561,36.819],[-2.718,36.682],[-2.933,36.752],[-4.403,36.724],[-4.659,36.508],[-5.187,36.411],[-5.339,36.141],[-5.425,36.18],[-5.439,36.063],[-5.612,36.006],[-6.037,36.19],[-6.31,36.534],[-6.179,36.514],[-6.395,36.637],[-6.433,36.751],[-6.195,36.932],[-6.345,36.901],[-6.388,36.808],[-6.5,36.96],[-6.893,37.167],[-6.853,37.295],[-6.963,37.234],[-6.928,37.172],[-7.414,37.193],[-7.514,37.601],[-7.273,37.977],[-7.024,38.023],[-6.948,38.197],[-7.104,38.174],[-7.359,38.446],[-7.27,38.738],[-7.056,38.855],[-6.973,39.014],[-7.258,39.211],[-7.314,39.457],[-7.557,39.68],[-7.021,39.694],[-6.88,40.009],[-7.043,40.181],[-6.794,40.356],[-6.857,40.442],[-6.816,40.857],[-6.942,41.016],[-6.804,41.064],[-6.647,41.268],[-6.321,41.411],[-6.206,41.57],[-6.542,41.659],[-6.524,41.867],[-6.609,41.962],[-7.145,41.987],[-7.219,41.879],[-7.443,41.806],[-7.722,41.899],[-7.897,41.858],[-7.906,41.914],[-8.18,41.811],[-8.23,41.905],[-8.095,42.041],[-8.204,42.07],[-8.222,42.154],[-8.627,42.051],[-8.881,41.893],[-8.895,42.119],[-8.623,42.347],[-8.868,42.256],[-8.655,42.441],[-8.844,42.404],[-8.943,42.469],[-8.827,42.462],[-8.731,42.688],[-9.026,42.543],[-9.03,42.708],[-8.888,42.831],[-9.1,42.758],[-9.135,42.918],[-9.273,42.893],[-9.28,43.055],[-9.108,43.141],[-9.218,43.155],[-8.933,43.235],[-8.988,43.283],[-8.83,43.341],[-8.693,43.293],[-8.331,43.406],[-8.21,43.313],[-8.175,43.416],[-8.305,43.451],[-8.169,43.492],[-8.333,43.472],[-8.313,43.567],[-7.909,43.766],[-7.858,43.668],[-7.686,43.793],[-7.692,43.727],[-7.367,43.68],[-7.271,43.561],[-7.044,43.559],[-7.045,43.479],[-6.944,43.566],[-6.069,43.57],[-5.852,43.663],[-5.677,43.561],[-5.394,43.555],[-5.414,43.507],[-4.482,43.384],[-3.827,43.497],[-3.769,43.479],[-3.811,43.425],[-3.579,43.518],[-3.432,43.467],[-3.461,43.412],[-3.008,43.321],[-2.947,43.431],[-2.769,43.453],[-2.691,43.368],[-2.128,43.287],[-1.794,43.386]]],[[[1.526,38.678],[1.383,38.642],[1.431,38.755],[1.526,38.678]]],[[[1.606,39.091],[1.623,39.029],[1.403,38.832],[1.217,38.885],[1.357,39.078],[1.606,39.091]]],[[[3.355,39.784],[3.474,39.75],[3.454,39.66],[3.253,39.386],[3.061,39.269],[2.959,39.363],[2.787,39.376],[2.682,39.559],[2.493,39.47],[2.351,39.576],[2.813,39.873],[3.179,39.969],[3.097,39.914],[3.207,39.893],[3.136,39.789],[3.355,39.784]]],[[[4.303,39.926],[4.337,39.867],[4.248,39.816],[3.831,39.936],[3.803,40.018],[4.105,40.079],[4.303,39.926]]]]}},{"type":"Feature","properties":{"zone":"FI00","role":"model","country":"FI"},"geometry":{"type":"MultiPolygon","coordinates":[[[[28.954,69.027],[28.41,68.899],[28.801,68.835],[28.448,68.53],[28.664,68.204],[29.331,68.073],[29.651,67.824],[30.009,67.686],[29.916,67.508],[29.52,67.298],[29.052,66.908],[29.9,66.108],[30.112,65.712],[30.099,65.656],[29.703,65.629],[29.839,65.565],[29.726,65.492],[29.72,65.329],[29.58,65.235],[29.833,65.205],[29.85,65.122],[29.598,65.034],[29.634,64.907],[29.78,64.796],[30.119,64.768],[30.181,64.643],[29.955,64.569],[30.07,64.472],[30.032,64.397],[30.558,64.22],[30.552,64.022],[30.202,63.793],[29.981,63.742],[30.461,63.473],[31.204,63.213],[31.57,62.906],[31.244,62.503],[29.203,61.246],[27.74,60.574],[27.705,60.485],[27.457,60.464],[27.232,60.512],[27.308,60.526],[27.215,60.585],[26.962,60.447],[26.553,60.433],[26.475,60.487],[26.58,60.591],[26.753,60.574],[26.659,60.652],[26.342,60.376],[25.917,60.485],[26.108,60.336],[26.04,60.3],[25.842,60.402],[25.93,60.245],[25.754,60.321],[25.849,60.266],[25.736,60.247],[25.669,60.365],[25.526,60.327],[25.503,60.246],[25.314,60.273],[25.029,60.148],[24.999,60.213],[24.951,60.143],[24.807,60.191],[24.67,60.101],[24.554,60.156],[24.594,60.06],[24.446,59.992],[24.446,60.048],[24.313,59.998],[24.32,60.076],[23.429,59.957],[23.546,60.074],[23.237,59.898],[23.251,59.841],[22.905,59.811],[23.326,60.009],[23.111,59.923],[23.258,60.04],[23.035,60.045],[23.025,60.135],[22.875,60.15],[23.081,60.355],[22.525,60.204],[22.648,60.279],[22.459,60.265],[22.624,60.399],[22.292,60.383],[21.903,60.529],[21.785,60.478],[21.841,60.629],[21.612,60.489],[21.518,60.567],[21.579,60.567],[21.409,60.58],[21.47,60.608],[21.353,60.69],[21.47,60.731],[21.329,60.828],[21.428,60.903],[21.299,61.06],[21.482,61.06],[21.443,61.17],[21.558,61.204],[21.476,61.246],[21.544,61.28],[21.524,61.375],[21.449,61.403],[21.572,61.416],[21.422,61.485],[21.592,61.485],[21.482,61.568],[21.716,61.527],[21.538,61.65],[21.518,61.711],[21.586,61.698],[21.47,61.76],[21.414,61.907],[21.237,61.985],[21.374,62.267],[21.312,62.232],[21.339,62.356],[21.271,62.411],[21.216,62.335],[21.202,62.418],[21.134,62.404],[21.127,62.554],[21.194,62.601],[21.065,62.596],[21.161,62.719],[21.114,62.781],[21.391,62.88],[21.444,63.041],[21.688,63.027],[21.497,63.209],[21.895,63.26],[21.881,63.178],[21.984,63.143],[22.025,63.239],[22.33,63.284],[22.374,63.321],[22.196,63.431],[22.402,63.418],[22.281,63.526],[22.407,63.457],[22.589,63.703],[22.773,63.628],[22.902,63.706],[22.833,63.726],[22.926,63.743],[22.903,63.795],[23.001,63.764],[23.063,63.853],[23.416,63.925],[23.396,64.056],[23.605,64.028],[23.574,64.107],[23.943,64.247],[24.004,64.389],[24.344,64.531],[24.588,64.781],[24.538,64.805],[25.095,64.918],[25.355,64.83],[25.36,64.911],[25.191,64.967],[25.444,64.967],[25.355,65.097],[25.211,65.124],[25.327,65.227],[25.335,65.343],[25.266,65.378],[25.355,65.412],[25.324,65.507],[24.859,65.659],[24.676,65.635],[24.55,65.763],[24.711,65.912],[24.519,65.796],[24.206,65.779],[24.02,66.049],[23.689,66.257],[23.652,66.459],[23.882,66.564],[23.892,66.751],[24.004,66.805],[23.581,67.153],[23.603,67.26],[23.786,67.338],[23.765,67.42],[23.431,67.486],[23.554,67.587],[23.481,67.865],[23.662,67.95],[23.307,68.146],[23.166,68.122],[23.067,68.29],[22.808,68.395],[22.072,68.477],[20.906,68.895],[20.911,68.981],[20.623,69.036],[20.744,69.104],[21.072,69.037],[21.156,69.088],[21.034,69.181],[21.098,69.239],[21.639,69.271],[22.371,68.823],[22.409,68.713],[23.198,68.618],[23.929,68.816],[24.905,68.557],[25.132,68.648],[25.201,68.813],[25.628,68.874],[25.796,68.993],[25.737,69.218],[26.005,69.689],[26.198,69.715],[26.534,69.925],[27.1,69.902],[27.867,70.075],[28.405,69.802],[29.147,69.664],[29.345,69.464],[28.852,69.204],[28.828,69.091],[28.954,69.027]]],[[[22.408,60.053],[22.443,59.998],[22.383,59.993],[22.349,60.063],[22.408,60.053]]],[[[21.744,60.191],[21.888,60.176],[21.72,60.114],[21.744,60.191]]],[[[22.059,60.211],[22.009,60.137],[21.935,60.176],[22.059,60.211]]],[[[25.622,60.238],[25.582,60.296],[25.684,60.245],[25.622,60.238]]],[[[22.844,60.242],[22.949,60.27],[22.73,60.005],[22.47,59.998],[22.422,60.115],[22.6,60.142],[22.415,60.15],[22.448,60.221],[22.844,60.242]]],[[[21.998,60.334],[21.794,60.374],[21.808,60.467],[21.998,60.334]]],[[[21.394,60.56],[21.482,60.526],[21.443,60.471],[21.329,60.525],[21.394,60.56]]],[[[21.264,60.882],[21.202,60.889],[21.299,60.896],[21.27,60.968],[21.374,60.93],[21.264,60.882]]],[[[21.422,63.247],[21.243,63.151],[21.079,63.288],[21.243,63.281],[21.195,63.226],[21.287,63.211],[21.422,63.247]]],[[[21.319,63.288],[21.229,63.329],[21.346,63.364],[21.319,63.288]]],[[[24.993,65.055],[24.82,65.043],[24.722,65.003],[24.827,64.973],[24.735,64.951],[24.563,65.037],[24.993,65.055]]],[[[22.144,63.251],[22.069,63.319],[22.231,63.339],[22.144,63.251]]]]}},{"type":"Feature","properties":{"zone":"FR00","role":"model","country":"FR"},"geometry":{"type":"MultiPolygon","coordinates":[[[[2.522,51.088],[2.608,50.961],[2.587,50.845],[2.787,50.723],[3.129,50.779],[3.271,50.527],[3.608,50.477],[3.697,50.298],[4.003,50.344],[4.198,50.258],[4.126,50.128],[4.21,50.06],[4.132,49.975],[4.646,49.984],[4.816,50.161],[4.872,50.14],[4.784,49.958],[4.86,49.913],[4.849,49.794],[5.259,49.691],[5.456,49.499],[5.746,49.549],[5.961,49.441],[6.403,49.465],[6.714,49.159],[6.914,49.207],[7.043,49.108],[7.274,49.105],[7.41,49.169],[7.635,49.038],[8.2,48.959],[7.81,48.615],[7.751,48.341],[7.586,48.13],[7.621,47.971],[7.512,47.707],[7.586,47.585],[7.379,47.431],[6.973,47.489],[6.867,47.354],[7.037,47.33],[6.665,47.021],[6.443,46.944],[6.429,46.761],[6.118,46.583],[6.054,46.419],[6.135,46.37],[6.094,46.253],[5.955,46.2],[5.959,46.13],[6.14,46.15],[6.281,46.24],[6.214,46.315],[6.269,46.375],[6.483,46.449],[6.787,46.414],[6.75,46.346],[6.828,46.269],[6.766,46.152],[7.022,45.925],[6.801,45.826],[6.796,45.718],[7.161,45.411],[7.055,45.214],[6.603,45.103],[6.745,44.908],[7.007,44.822],[7.055,44.685],[6.96,44.683],[6.836,44.534],[6.918,44.436],[6.866,44.372],[6.983,44.242],[7.331,44.125],[7.656,44.176],[7.69,44.067],[7.478,43.866],[7.476,43.765],[7.152,43.655],[7.139,43.554],[6.962,43.54],[6.894,43.428],[6.731,43.408],[6.591,43.269],[6.693,43.273],[6.68,43.202],[6.375,43.091],[6.193,43.109],[6.18,43.036],[5.941,43.134],[5.857,43.045],[5.674,43.18],[5.347,43.216],[5.294,43.355],[5.034,43.335],[5.026,43.409],[5.226,43.48],[5.029,43.559],[5.051,43.429],[4.868,43.421],[4.856,43.342],[4.695,43.579],[4.82,43.346],[3.953,43.54],[3.114,43.106],[3.042,42.629],[3.181,42.431],[2.934,42.47],[2.662,42.339],[2.277,42.429],[1.996,42.349],[1.712,42.494],[1.722,42.61],[1.429,42.595],[1.343,42.709],[0.813,42.832],[0.656,42.838],[0.644,42.684],[-0.039,42.685],[-0.323,42.843],[-0.569,42.773],[-0.76,42.947],[-1.15,43.006],[-1.286,43.109],[-1.457,43.045],[-1.404,43.243],[-1.622,43.247],[-1.796,43.374],[-1.661,43.4],[-1.477,43.58],[-1.257,44.556],[-1.187,44.665],[-1.045,44.669],[-1.172,44.778],[-1.26,44.627],[-1.134,45.505],[-1.059,45.57],[-0.794,45.355],[-0.548,44.902],[-0.596,45.025],[-0.494,44.998],[-0.656,45.099],[-0.795,45.477],[-1.247,45.71],[-1.164,45.807],[-0.987,45.717],[-1.152,45.868],[-1.049,46.039],[-1.211,46.175],[-1.111,46.303],[-1.24,46.284],[-1.795,46.495],[-1.91,46.692],[-2.119,46.82],[-1.991,47.035],[-2.241,47.142],[-2.165,47.168],[-2.161,47.271],[-1.727,47.211],[-2.01,47.32],[-2.278,47.246],[-2.542,47.3],[-2.436,47.307],[-2.556,47.383],[-2.392,47.424],[-2.495,47.491],[-2.364,47.506],[-2.83,47.504],[-2.909,47.558],[-2.741,47.551],[-2.707,47.643],[-2.919,47.596],[-2.975,47.664],[-2.94,47.561],[-3.123,47.599],[-3.132,47.478],[-3.201,47.64],[-3.118,47.732],[-3.193,47.746],[-3.224,47.656],[-3.358,47.697],[-3.283,47.691],[-3.358,47.711],[-3.283,47.787],[-3.446,47.705],[-4.132,47.924],[-4.185,47.813],[-4.372,47.807],[-4.435,47.976],[-4.728,48.041],[-4.285,48.115],[-4.379,48.232],[-4.557,48.177],[-4.626,48.287],[-4.547,48.347],[-4.187,48.308],[-4.454,48.335],[-4.29,48.432],[-4.768,48.345],[-4.765,48.52],[-4.564,48.63],[-3.974,48.733],[-3.852,48.63],[-3.81,48.733],[-3.585,48.683],[-3.515,48.842],[-3.23,48.872],[-3.221,48.794],[-3.091,48.871],[-3.125,48.76],[-3.008,48.821],[-2.682,48.509],[-2.316,48.699],[-2.33,48.63],[-2.214,48.582],[-2.052,48.65],[-1.98,48.514],[-2.029,48.643],[-1.946,48.699],[-1.844,48.712],[-1.796,48.616],[-1.357,48.643],[-1.554,48.747],[-1.603,48.849],[-1.508,49.034],[-1.594,49.029],[-1.61,49.216],[-1.548,49.225],[-1.816,49.384],[-1.885,49.531],[-1.84,49.62],[-1.935,49.724],[-1.607,49.65],[-1.263,49.696],[-1.228,49.624],[-1.306,49.558],[-1.123,49.345],[-0.94,49.392],[-0.219,49.28],[0.411,49.452],[0.493,49.494],[0.079,49.516],[0.186,49.703],[1.221,49.979],[1.521,50.215],[1.673,50.193],[1.542,50.278],[1.61,50.371],[1.555,50.405],[1.581,50.869],[2.522,51.088]]],[[[8.566,42.209],[8.688,42.273],[8.549,42.377],[8.66,42.43],[8.709,42.579],[9.118,42.732],[9.292,42.675],[9.347,43.004],[9.464,42.99],[9.443,42.641],[9.528,42.564],[9.56,42.147],[9.403,41.953],[9.402,41.706],[9.292,41.626],[9.351,41.581],[9.211,41.448],[9.223,41.373],[8.792,41.561],[8.923,41.695],[8.655,41.75],[8.805,41.907],[8.614,41.901],[8.586,41.969],[8.745,42.057],[8.566,42.209]]],[[[-1.219,45.944],[-1.227,45.82],[-1.405,46.053],[-1.219,45.944]]],[[[-3.115,47.331],[-3.223,47.312],[-3.262,47.383],[-3.115,47.331]]]]}},{"type":"Feature","properties":{"zone":"LT00","role":"model","country":"LT"},"geometry":{"type":"MultiPolygon","coordinates":[[[[26.595,55.667],[26.45,55.327],[26.801,55.273],[26.601,55.121],[26.264,55.14],[26.139,54.969],[25.783,54.87],[25.74,54.569],[25.529,54.321],[25.696,54.321],[25.789,54.236],[25.763,54.156],[25.516,54.145],[25.554,54.231],[25.459,54.299],[25.206,54.257],[25.072,54.132],[24.822,54.135],[24.789,53.97],[24.378,53.887],[24.17,53.959],[23.627,53.898],[23.486,53.939],[23.474,54.113],[23.354,54.217],[22.707,54.419],[22.701,54.68],[22.848,54.814],[22.565,55.068],[22.077,55.029],[21.375,55.29],[21.268,55.249],[21.257,55.369],[21.183,55.346],[21.223,55.52],[21.061,55.789],[21.053,56.073],[21.19,56.084],[21.328,56.224],[22.094,56.417],[22.666,56.349],[22.925,56.412],[23.062,56.304],[23.288,56.373],[23.707,56.354],[24.139,56.257],[24.481,56.269],[24.871,56.443],[25.073,56.198],[25.662,56.141],[26.28,55.743],[26.595,55.667]]],[[[20.989,55.273],[20.925,55.283],[21.082,55.498],[21.085,55.723],[21.106,55.421],[20.989,55.273]]]]}},{"type":"Feature","properties":{"zone":"LV00","role":"model","country":"LV"},"geometry":{"type":"MultiPolygon","coordinates":[[[[27.353,57.528],[27.528,57.528],[27.511,57.43],[27.84,57.291],[27.824,57.159],[27.682,57.104],[27.751,57.042],[27.628,56.844],[27.914,56.82],[27.865,56.743],[28.126,56.548],[28.217,56.271],[28.149,56.142],[27.927,56.109],[27.645,55.923],[27.593,55.794],[26.981,55.827],[26.823,55.706],[26.481,55.678],[25.662,56.141],[25.073,56.198],[24.871,56.443],[24.481,56.269],[24.139,56.257],[23.707,56.354],[23.288,56.373],[23.062,56.304],[22.925,56.412],[22.666,56.349],[22.094,56.417],[21.328,56.224],[21.19,56.084],[21.053,56.073],[20.973,56.232],[21.0,56.511],[21.08,56.403],[20.992,56.549],[21.053,56.829],[21.382,57.009],[21.434,57.306],[21.73,57.574],[22.484,57.742],[22.61,57.755],[22.656,57.586],[23.13,57.371],[23.261,57.099],[23.695,56.967],[23.953,57.013],[24.401,57.258],[24.306,57.868],[25.094,58.067],[25.217,57.985],[25.282,58.073],[25.602,57.912],[26.015,57.843],[26.025,57.774],[26.5,57.516],[26.873,57.627],[27.353,57.528]]]]}},{"type":"Feature","properties":{"zone":"NL00","role":"model","country":"NL"},"geometry":{"type":"MultiPolygon","coordinates":[[[[7.195,53.245],[7.193,52.998],[7.037,52.647],[6.737,52.635],[6.672,52.542],[6.715,52.462],[6.973,52.451],[7.048,52.365],[7.026,52.231],[6.673,52.05],[6.811,51.961],[6.345,51.821],[6.127,51.897],[6.156,51.842],[5.931,51.816],[6.205,51.458],[6.057,51.212],[6.147,51.152],[5.852,51.043],[5.875,50.965],[6.064,50.908],[5.995,50.75],[5.707,50.754],[5.624,50.83],[5.829,51.156],[5.493,51.287],[5.215,51.259],[5.028,51.477],[4.91,51.392],[4.762,51.413],[4.823,51.414],[4.779,51.495],[4.63,51.418],[4.483,51.474],[4.377,51.443],[4.392,51.35],[3.999,51.453],[3.827,51.391],[3.451,51.53],[3.851,51.611],[4.105,51.446],[4.283,51.448],[3.988,51.59],[4.207,51.59],[4.113,51.639],[4.177,51.686],[3.862,51.816],[4.078,51.844],[4.016,51.988],[4.142,52.006],[4.508,52.336],[4.745,52.968],[4.874,52.904],[5.078,52.954],[5.379,53.097],[5.592,53.303],[5.981,53.406],[6.829,53.451],[6.901,53.352],[7.195,53.245]]],[[[3.349,51.375],[4.221,51.368],[4.119,51.272],[3.809,51.205],[3.61,51.29],[3.392,51.247],[3.349,51.375]]],[[[4.037,51.686],[4.099,51.654],[3.978,51.623],[3.687,51.693],[3.814,51.748],[4.037,51.686]]],[[[4.893,53.111],[4.796,53.0],[4.708,53.028],[4.854,53.188],[4.893,53.111]]],[[[6.212,53.509],[6.339,53.502],[6.133,53.454],[6.212,53.509]]]]}},{"type":"Feature","properties":{"zone":"NOM1","role":"model","country":"NO"},"geometry":{"type":"MultiPolygon","coordinates":[[[[10.874,65.42],[11.915,65.16],[12.085,65.0],[12.514,64.976],[12.535,64.618],[13.096,64.412],[13.116,64.083],[12.684,63.974],[12.15,63.594],[12.213,63.479],[11.975,63.269],[12.218,63.0],[12.075,62.903],[12.136,62.748],[11.799,62.829],[11.123,62.661],[10.792,62.679],[10.66,62.55],[10.489,62.526],[10.52,62.463],[10.411,62.384],[10.219,62.382],[9.992,62.129],[9.865,62.095],[9.928,62.048],[9.839,62.013],[9.848,61.904],[10.013,61.877],[8.9,61.486],[9.144,61.469],[9.07,61.387],[8.781,61.451],[8.381,61.416],[8.262,61.534],[7.947,61.557],[7.908,61.722],[7.514,61.727],[7.413,61.858],[6.806,61.584],[6.336,61.297],[6.404,61.249],[6.132,61.135],[5.791,61.145],[5.418,61.047],[5.156,61.118],[4.611,60.887],[4.185,60.833],[4.089,61.032],[4.158,61.697],[4.904,62.445],[5.964,62.962],[6.839,63.26],[8.116,64.045],[9.997,64.87],[10.578,65.47],[10.874,65.42]]]]}},{"type":"Feature","properties":{"zone":"NON1","role":"model","country":"NO"},"geometry":{"type":"MultiPolygon","coordinates":[[[[28.336,71.294],[30.45,70.868],[31.696,70.48],[31.759,70.37],[31.586,70.144],[30.818,69.795],[30.944,69.683],[30.939,69.561],[30.516,69.54],[30.085,69.658],[30.188,69.569],[30.115,69.468],[29.29,69.297],[29.242,69.113],[29.041,69.011],[28.805,69.111],[28.832,69.224],[29.336,69.478],[29.134,69.695],[28.404,69.818],[27.984,70.014],[27.959,70.092],[27.616,70.075],[27.098,69.917],[26.467,69.94],[25.896,69.669],[25.977,69.61],[25.841,69.551],[25.793,69.421],[25.847,69.394],[25.701,69.25],[25.774,69.013],[25.627,68.893],[25.157,68.8],[25.116,68.64],[24.903,68.555],[23.871,68.837],[23.674,68.706],[23.168,68.629],[22.375,68.717],[22.176,68.956],[21.627,69.277],[21.279,69.312],[21.003,69.222],[21.109,69.104],[21.058,69.036],[20.717,69.12],[20.06,69.046],[20.307,68.926],[20.336,68.802],[19.938,68.558],[20.227,68.491],[19.921,68.356],[18.406,68.582],[18.126,68.537],[18.151,68.199],[17.9,67.969],[17.282,68.119],[16.738,67.914],[16.408,67.534],[16.158,67.519],[16.09,67.435],[16.404,67.205],[16.388,67.045],[16.039,66.912],[15.377,66.484],[15.485,66.282],[15.036,66.154],[14.516,66.133],[14.625,65.812],[14.499,65.521],[14.507,65.31],[13.654,64.58],[14.114,64.462],[14.157,64.195],[13.968,64.008],[13.116,64.083],[13.096,64.412],[12.535,64.618],[12.514,64.976],[12.085,65.0],[11.915,65.16],[10.578,65.47],[11.091,66.198],[11.585,66.684],[11.859,66.815],[11.318,67.384],[11.383,67.563],[12.128,67.823],[12.621,68.259],[13.264,68.464],[13.867,68.861],[14.787,69.251],[17.056,69.745],[18.315,70.39],[21.701,70.853],[23.723,71.279],[25.683,71.385],[28.336,71.294]]]]}},{"type":"Feature","properties":{"zone":"NOS0","role":"model","country":"NO"},"geometry":{"type":"MultiPolygon","coordinates":[[[[11.809,62.829],[12.136,62.748],[12.056,62.612],[12.299,62.267],[12.138,61.724],[12.42,61.563],[12.569,61.569],[12.871,61.356],[12.681,61.06],[12.224,61.013],[12.607,60.513],[12.606,60.406],[12.499,60.324],[12.542,60.193],[12.449,60.039],[12.174,59.89],[11.84,59.841],[11.946,59.7],[11.698,59.609],[11.83,59.242],[11.652,58.906],[11.456,58.889],[11.465,58.991],[11.34,59.115],[10.639,58.892],[10.593,58.761],[10.655,59.192],[10.543,59.457],[10.394,59.515],[10.41,59.667],[9.998,59.664],[9.822,59.504],[9.866,59.459],[9.66,59.408],[9.472,59.482],[9.515,59.538],[9.333,59.693],[9.368,59.781],[8.988,59.988],[8.971,60.079],[9.218,60.152],[9.149,60.364],[9.747,60.317],[9.831,60.456],[9.417,60.548],[9.291,60.762],[8.134,61.11],[8.007,61.235],[8.244,61.321],[8.156,61.375],[8.192,61.439],[9.07,61.387],[9.144,61.469],[8.902,61.454],[8.945,61.515],[9.1,61.507],[9.746,61.825],[10.013,61.877],[9.848,61.904],[9.839,62.013],[9.928,62.048],[9.865,62.095],[9.992,62.129],[10.234,62.391],[10.493,62.428],[10.489,62.526],[10.66,62.55],[10.825,62.688],[11.123,62.661],[11.809,62.829]]],[[[5.741,60.352],[5.944,60.309],[5.964,60.161],[6.415,60.217],[6.569,60.133],[6.688,60.231],[6.913,60.219],[7.08,60.04],[7.23,60.001],[8.104,60.184],[8.723,60.183],[9.18,59.929],[9.186,59.827],[9.368,59.781],[9.333,59.693],[9.515,59.538],[9.472,59.482],[9.66,59.408],[9.866,59.459],[9.822,59.504],[9.998,59.664],[10.363,59.698],[10.394,59.515],[10.543,59.457],[10.655,59.192],[10.593,58.761],[9.788,58.672],[8.493,57.955],[7.785,57.781],[7.147,57.764],[6.434,57.898],[5.352,58.436],[5.006,58.923],[4.46,59.247],[4.672,59.665],[4.547,60.104],[5.21,60.189],[5.485,60.111],[5.741,60.352]]],[[[7.415,61.855],[7.514,61.727],[7.908,61.722],[7.947,61.557],[8.262,61.534],[8.322,61.456],[8.15,61.427],[8.244,61.321],[8.007,61.235],[8.134,61.11],[9.291,60.762],[9.417,60.548],[9.831,60.456],[9.747,60.317],[9.149,60.364],[9.218,60.152],[9.088,60.073],[8.723,60.183],[8.132,60.186],[7.23,60.001],[7.08,60.04],[6.913,60.219],[6.688,60.231],[6.569,60.133],[6.415,60.217],[5.964,60.161],[5.944,60.309],[5.74,60.354],[5.485,60.111],[5.21,60.189],[4.547,60.104],[4.185,60.833],[4.611,60.887],[5.156,61.118],[5.418,61.047],[5.791,61.145],[6.132,61.135],[6.404,61.249],[6.336,61.297],[6.806,61.584],[7.415,61.855]]]]}},{"type":"Feature","properties":{"zone":"PL00","role":"model","country":"PL"},"geometry":{"type":"MultiPolygon","coordinates":[[[[18.833,49.51],[18.788,49.669],[18.618,49.714],[18.559,49.907],[18.292,49.908],[18.002,50.047],[18.032,50.003],[17.839,49.974],[17.633,50.106],[17.589,50.163],[17.748,50.218],[17.708,50.311],[17.424,50.241],[16.893,50.433],[17.015,50.218],[16.661,50.093],[16.344,50.37],[16.2,50.406],[16.426,50.568],[16.332,50.644],[15.982,50.604],[15.971,50.679],[15.792,50.743],[15.356,50.775],[15.27,50.953],[15.144,51.012],[14.961,50.993],[14.982,50.859],[14.81,50.858],[15.019,51.272],[14.945,51.449],[14.71,51.53],[14.732,51.658],[14.586,51.804],[14.761,52.077],[14.686,52.121],[14.712,52.236],[14.545,52.382],[14.645,52.577],[14.124,52.851],[14.144,52.96],[14.343,53.049],[14.442,53.252],[14.264,53.7],[14.294,53.749],[14.591,53.598],[14.624,53.653],[14.545,53.704],[14.631,53.852],[14.432,53.906],[14.319,53.818],[14.175,53.906],[16.179,54.263],[16.57,54.557],[17.337,54.749],[18.152,54.838],[18.752,54.69],[18.818,54.598],[18.456,54.788],[18.413,54.732],[18.523,54.647],[18.588,54.434],[18.886,54.35],[19.61,54.457],[22.698,54.343],[22.838,54.401],[23.449,54.155],[23.591,53.611],[23.894,53.152],[23.922,52.743],[23.392,52.51],[23.166,52.289],[23.637,52.084],[23.676,51.994],[23.543,51.593],[23.698,51.404],[23.635,51.305],[24.143,50.856],[23.958,50.808],[24.081,50.713],[24.108,50.541],[23.981,50.405],[23.682,50.368],[22.666,49.567],[22.738,49.275],[22.682,49.161],[22.853,49.085],[22.855,48.994],[22.041,49.197],[21.928,49.331],[21.601,49.426],[21.069,49.419],[20.919,49.29],[20.69,49.4],[20.318,49.392],[20.136,49.309],[20.05,49.173],[19.761,49.194],[19.769,49.393],[19.627,49.402],[19.457,49.598],[19.142,49.394],[18.962,49.389],[18.961,49.493],[18.833,49.51]]]]}},{"type":"Feature","properties":{"zone":"PT00","role":"model","country":"PT"},"geometry":{"type":"MultiPolygon","coordinates":[[[[-7.105,38.827],[-7.27,38.738],[-7.359,38.446],[-7.104,38.174],[-6.948,38.197],[-7.024,38.023],[-7.273,37.977],[-7.53,37.567],[-7.408,37.165],[-7.82,36.999],[-8.58,37.124],[-8.998,37.021],[-8.752,37.731],[-8.809,37.723],[-8.805,37.902],[-8.895,37.953],[-8.774,38.187],[-8.795,38.359],[-8.943,38.481],[-8.607,38.419],[-8.736,38.452],[-8.773,38.565],[-8.788,38.481],[-9.231,38.419],[-9.184,38.552],[-9.253,38.665],[-9.108,38.659],[-8.943,38.776],[-9.012,38.913],[-8.765,39.098],[-8.936,39.041],[-9.113,38.714],[-9.472,38.702],[-9.497,38.81],[-9.351,39.197],[-9.409,39.375],[-9.218,39.406],[-9.09,39.579],[-8.868,40.125],[-8.785,40.119],[-8.908,40.201],[-8.753,40.641],[-8.573,40.756],[-8.668,40.747],[-8.655,40.845],[-8.751,40.653],[-8.648,41.153],[-8.737,41.25],[-8.831,41.672],[-8.696,41.722],[-8.88,41.737],[-8.868,41.859],[-8.627,42.051],[-8.222,42.154],[-8.204,42.07],[-8.095,42.041],[-8.232,41.886],[-8.093,41.807],[-7.906,41.914],[-7.897,41.858],[-7.722,41.899],[-7.443,41.806],[-7.219,41.879],[-7.16,41.986],[-6.609,41.962],[-6.524,41.867],[-6.542,41.659],[-6.206,41.57],[-6.321,41.411],[-6.647,41.268],[-6.804,41.064],[-6.942,41.016],[-6.816,40.857],[-6.857,40.442],[-6.794,40.356],[-7.043,40.181],[-6.88,40.009],[-7.021,39.694],[-7.557,39.68],[-7.314,39.457],[-7.244,39.196],[-6.986,39.067],[-7.105,38.827]]]]}},{"type":"Feature","properties":{"zone":"SE01","role":"model","country":"SE"},"geometry":{"type":"MultiPolygon","coordinates":[[[[15.43,66.464],[16.039,66.888],[16.4,67.036],[16.438,67.2],[16.127,67.423],[16.587,67.626],[16.808,67.911],[17.321,68.105],[17.921,67.973],[18.189,68.199],[18.162,68.53],[18.436,68.574],[19.971,68.351],[20.246,68.477],[19.962,68.541],[20.237,68.659],[20.357,68.805],[20.341,68.91],[20.102,69.022],[20.623,69.036],[20.911,68.981],[20.906,68.895],[22.072,68.477],[22.808,68.395],[23.067,68.29],[23.166,68.122],[23.307,68.146],[23.662,67.95],[23.481,67.865],[23.554,67.587],[23.431,67.486],[23.765,67.42],[23.786,67.338],[23.603,67.26],[23.581,67.153],[24.004,66.805],[23.892,66.751],[23.882,66.564],[23.652,66.459],[23.663,66.317],[23.724,66.207],[24.02,66.049],[24.163,65.823],[23.926,65.76],[23.739,65.829],[23.47,65.833],[23.428,65.765],[23.196,65.827],[23.238,65.769],[23.103,65.705],[22.653,65.908],[22.664,65.758],[22.406,65.864],[22.326,65.837],[22.326,65.736],[22.209,65.761],[22.388,65.673],[22.282,65.701],[22.285,65.632],[22.189,65.624],[22.301,65.612],[22.309,65.669],[22.405,65.542],[21.764,65.728],[22.203,65.549],[21.854,65.535],[22.032,65.467],[21.928,65.404],[21.489,65.393],[21.449,65.357],[21.702,65.286],[21.623,65.241],[21.346,65.373],[21.264,65.337],[21.538,65.231],[21.619,65.148],[21.544,65.137],[21.586,65.069],[21.243,64.953],[21.181,64.836],[21.037,64.833],[21.306,64.768],[21.229,64.748],[21.305,64.666],[21.144,64.733],[21.123,64.683],[21.486,64.583],[21.526,64.523],[21.347,64.532],[21.606,64.452],[21.039,64.188],[15.483,66.336],[15.43,66.464]]]]}},{"type":"Feature","properties":{"zone":"SE02","role":"model","country":"SE"},"geometry":{"type":"MultiPolygon","coordinates":[[[[18.027,62.685],[18.041,62.755],[18.16,62.747],[18.027,62.685]]],[[[20.967,64.149],[20.897,63.984],[20.675,63.789],[20.503,63.822],[20.394,63.681],[20.325,63.754],[20.308,63.654],[20.284,63.733],[20.243,63.651],[20.035,63.657],[19.687,63.431],[19.446,63.561],[19.517,63.415],[19.293,63.467],[19.259,63.329],[19.057,63.26],[19.112,63.22],[19.053,63.179],[18.886,63.273],[18.735,63.253],[18.894,63.198],[18.564,63.178],[18.655,63.114],[18.242,63.0],[18.571,62.973],[18.403,62.965],[18.523,62.925],[18.4,62.911],[18.451,62.857],[18.249,62.884],[18.244,62.799],[18.077,62.774],[18.009,62.794],[18.146,62.822],[17.935,62.817],[17.831,63.0],[17.694,62.994],[17.995,62.728],[17.993,62.66],[17.872,62.671],[18.064,62.596],[17.937,62.616],[17.843,62.49],[17.671,62.489],[17.707,62.437],[17.427,62.541],[17.331,62.488],[17.381,62.333],[17.653,62.232],[17.509,62.218],[17.46,62.003],[17.345,61.937],[17.337,61.824],[17.406,61.821],[17.399,61.722],[17.514,61.714],[17.496,61.635],[17.138,61.726],[17.269,61.691],[17.097,61.636],[17.248,61.609],[17.056,61.582],[17.187,61.561],[17.08,61.55],[17.22,61.448],[17.104,61.399],[17.276,61.314],[17.097,61.321],[17.213,61.235],[17.152,61.204],[17.159,61.02],[17.248,61.012],[17.158,60.948],[17.336,60.767],[17.259,60.724],[12.316,62.263],[12.091,62.586],[12.156,62.734],[12.093,62.907],[12.223,63.001],[11.992,63.289],[12.22,63.474],[12.17,63.598],[12.755,63.991],[13.234,64.091],[13.982,64.02],[14.161,64.187],[14.116,64.441],[13.643,64.584],[14.514,65.318],[14.561,65.701],[14.649,65.802],[14.541,66.125],[15.053,66.153],[15.482,66.275],[15.483,66.336],[21.039,64.188],[20.967,64.149]]]]}},{"type":"Feature","properties":{"zone":"SE03","role":"model","country":"SE"},"geometry":{"type":"MultiPolygon","coordinates":[[[[19.015,57.822],[18.941,57.73],[18.807,57.734],[18.762,57.617],[18.79,57.449],[18.926,57.393],[18.406,57.143],[18.338,57.031],[18.4,57.004],[18.312,56.948],[18.139,56.922],[18.29,57.093],[18.201,57.065],[18.228,57.134],[18.099,57.259],[18.179,57.38],[18.128,57.548],[18.7,57.921],[18.803,57.826],[18.837,57.912],[19.01,57.908],[19.085,57.826],[19.015,57.822]]],[[[11.732,57.998],[11.581,57.936],[11.498,58.028],[11.717,58.065],[11.732,57.998]]],[[[11.783,58.12],[11.458,58.072],[11.407,58.131],[11.703,58.291],[11.807,58.23],[11.783,58.12]]],[[[17.704,58.955],[17.685,58.901],[17.626,58.957],[17.652,59.072],[17.704,58.955]]],[[[18.456,59.057],[18.341,59.033],[18.466,59.117],[18.456,59.057]]],[[[17.186,60.697],[17.34,60.623],[17.575,60.648],[17.671,60.504],[17.975,60.588],[17.967,60.512],[18.262,60.382],[18.235,60.327],[18.428,60.349],[18.427,60.286],[18.605,60.238],[18.317,60.321],[18.42,60.194],[18.549,60.174],[18.578,60.074],[18.651,60.148],[18.797,60.005],[18.753,60.082],[18.817,60.118],[18.903,59.947],[19.072,59.896],[19.035,59.835],[18.886,59.93],[18.924,59.852],[18.734,59.769],[19.085,59.772],[18.269,59.477],[18.307,59.397],[18.181,59.458],[18.009,59.409],[18.221,59.32],[18.47,59.337],[18.427,59.436],[18.485,59.434],[18.646,59.33],[18.291,59.323],[18.424,59.144],[18.014,59.045],[17.893,58.861],[17.774,58.961],[17.774,58.886],[17.769,59.121],[17.71,59.053],[17.659,59.169],[17.577,58.957],[17.627,58.918],[17.536,58.902],[17.591,58.861],[17.447,58.895],[17.488,58.8],[17.337,58.806],[17.358,58.751],[17.028,58.751],[17.146,58.697],[16.924,58.625],[16.179,58.635],[16.789,58.607],[16.94,58.491],[16.748,58.429],[16.413,58.477],[16.767,58.369],[16.632,58.354],[16.799,58.324],[16.707,58.271],[16.824,58.193],[16.777,58.131],[16.617,58.203],[16.736,58.085],[16.686,58.059],[16.746,58.017],[16.631,58.028],[16.758,57.877],[16.611,57.895],[16.515,57.999],[16.573,57.894],[16.46,57.902],[16.7,57.744],[16.419,57.895],[16.715,57.703],[16.577,57.71],[16.631,57.629],[16.521,57.627],[16.689,57.472],[16.548,57.383],[16.563,57.319],[12.352,56.991],[12.101,57.237],[12.144,57.31],[12.05,57.351],[12.109,57.394],[12.059,57.459],[11.979,57.347],[11.903,57.394],[11.917,57.621],[11.835,57.662],[11.924,57.703],[11.705,57.698],[11.81,57.781],[11.656,57.839],[11.759,57.902],[11.89,58.217],[11.809,58.302],[11.883,58.333],[11.506,58.243],[11.67,58.422],[11.553,58.463],[11.522,58.336],[11.396,58.265],[11.424,58.388],[11.346,58.346],[11.424,58.443],[11.221,58.346],[11.286,58.58],[11.177,58.719],[11.232,58.844],[11.119,59.021],[11.321,59.1],[11.452,58.896],[11.664,58.92],[11.812,59.25],[11.675,59.607],[11.897,59.714],[11.85,59.872],[12.144,59.898],[12.483,60.081],[12.492,60.312],[12.605,60.419],[12.253,61.002],[12.704,61.046],[12.888,61.35],[12.162,61.725],[12.316,62.263],[17.186,60.697]]],[[[18.567,60.307],[18.402,60.37],[18.379,60.508],[18.567,60.307]]],[[[19.332,57.959],[19.162,57.926],[19.13,57.847],[19.037,57.905],[19.115,57.98],[19.332,57.959]]],[[[18.647,59.372],[18.747,59.332],[18.678,59.3],[18.647,59.372]]],[[[18.988,59.79],[18.886,59.794],[18.959,59.864],[18.988,59.79]]]]}},{"type":"Feature","properties":{"zone":"SE04","role":"model","country":"SE"},"geometry":{"type":"MultiPolygon","coordinates":[[[[16.485,57.295],[16.465,57.177],[16.583,57.045],[16.44,57.052],[16.408,56.799],[16.472,56.777],[16.246,56.642],[15.874,56.103],[15.586,56.209],[15.366,56.141],[14.701,56.161],[14.768,56.031],[14.497,56.04],[14.235,55.863],[14.196,55.726],[14.368,55.545],[14.158,55.387],[12.833,55.383],[12.986,55.448],[12.917,55.547],[13.055,55.694],[12.923,55.749],[12.926,55.834],[12.451,56.304],[12.814,56.236],[12.622,56.419],[12.89,56.455],[12.934,56.547],[12.342,56.963],[16.485,57.295]]],[[[17.076,57.305],[16.566,56.346],[16.428,56.218],[16.419,56.586],[16.621,56.872],[16.731,56.904],[16.966,57.305],[17.055,57.358],[17.123,57.325],[17.076,57.305]]]]}},{"type":"Feature","properties":{"zone":"UK00","role":"model","country":"UK"},"geometry":{"type":"MultiPolygon","coordinates":[[[[-3.098,53.26],[-2.924,53.186],[-2.721,52.928],[-2.981,52.952],[-3.115,52.871],[-3.144,52.806],[-2.987,52.744],[-3.115,52.574],[-2.985,52.543],[-3.211,52.44],[-2.976,52.316],[-3.107,52.065],[-2.954,51.915],[-2.662,51.802],[-2.668,51.623],[-3.293,51.39],[-3.562,51.414],[-3.891,51.592],[-4.235,51.569],[-4.091,51.66],[-4.386,51.741],[-4.902,51.626],[-5.168,51.741],[-5.262,51.88],[-5.183,51.95],[-4.218,52.277],[-3.98,52.542],[-4.079,52.608],[-4.101,52.915],[-4.683,52.806],[-4.638,52.891],[-4.269,53.145],[-3.809,53.303],[-3.326,53.347],[-3.098,53.26]]],[[[-4.197,53.321],[-4.049,53.306],[-4.084,53.264],[-4.373,53.134],[-4.553,53.26],[-4.568,53.386],[-4.315,53.417],[-4.197,53.321]]],[[[-2.017,55.808],[-2.321,55.628],[-2.203,55.446],[-2.544,55.317],[-3.081,54.962],[-3.55,54.947],[-3.958,54.781],[-4.253,54.847],[-4.517,54.758],[-4.818,54.846],[-4.911,54.689],[-5.135,54.858],[-5.173,54.986],[-5.056,54.988],[-4.677,55.501],[-4.892,55.699],[-4.872,55.874],[-4.807,55.94],[-4.584,55.939],[-4.844,56.051],[-4.8,56.158],[-5.228,55.886],[-5.223,56.066],[-5.084,56.197],[-5.41,55.995],[-5.386,55.77],[-5.556,55.39],[-5.731,55.334],[-5.681,55.624],[-5.504,55.802],[-5.623,55.813],[-5.61,56.055],[-5.188,56.758],[-5.652,56.532],[-6.133,56.718],[-5.731,56.853],[-5.861,56.903],[-5.591,57.102],[-5.562,57.233],[-5.795,57.379],[-5.802,57.468],[-5.582,57.547],[-5.745,57.668],[-5.608,57.881],[-5.157,57.881],[-5.413,58.07],[-5.338,58.239],[-5.008,58.263],[-5.09,58.385],[-5.017,58.567],[-4.715,58.51],[-4.492,58.568],[-4.433,58.513],[-3.053,58.635],[-3.212,58.321],[-3.99,57.959],[-4.036,57.852],[-3.857,57.819],[-4.135,57.578],[-3.403,57.708],[-2.074,57.702],[-1.867,57.612],[-1.781,57.474],[-2.593,56.562],[-3.31,56.363],[-2.885,56.398],[-2.653,56.318],[-2.674,56.253],[-3.362,56.028],[-3.789,56.095],[-3.049,55.952],[-2.599,56.027],[-2.017,55.808]]],[[[-2.549,59.231],[-2.662,59.23],[-2.604,59.289],[-2.407,59.298],[-2.549,59.231]]],[[[-1.043,60.514],[-1.166,60.604],[-1.093,60.72],[-0.992,60.686],[-1.043,60.514]]],[[[-1.308,60.538],[-1.158,60.418],[-1.052,60.444],[-1.299,59.879],[-1.356,59.911],[-1.291,60.153],[-1.664,60.283],[-1.375,60.333],[-1.45,60.469],[-1.572,60.494],[-1.364,60.61],[-1.308,60.538]]],[[[-0.774,60.812],[-0.825,60.684],[-0.922,60.697],[-0.916,60.81],[-0.774,60.812]]],[[[-3.165,58.794],[-3.279,58.782],[-3.395,58.91],[-3.272,58.905],[-3.165,58.794]]],[[[-2.929,58.742],[-3.035,58.823],[-2.896,58.828],[-2.929,58.742]]],[[[-3.057,59.03],[-2.762,58.956],[-2.864,58.891],[-3.201,58.925],[-3.242,59.0],[-3.347,58.987],[-3.31,59.131],[-3.051,59.099],[-3.057,59.03]]],[[[-2.729,59.187],[-2.815,59.162],[-3.052,59.324],[-2.976,59.347],[-2.729,59.187]]],[[[-5.105,55.449],[-5.331,55.481],[-5.371,55.667],[-5.185,55.691],[-5.105,55.449]]],[[[-5.778,56.344],[-6.313,56.294],[-6.185,56.357],[-6.139,56.491],[-6.32,56.569],[-6.103,56.646],[-5.761,56.491],[-5.778,56.344]]],[[[-6.129,55.931],[-6.088,55.658],[-6.305,55.607],[-6.302,55.781],[-6.491,55.697],[-6.413,55.855],[-6.129,55.931]]],[[[-5.97,55.815],[-6.072,55.893],[-5.912,55.975],[-5.939,56.045],[-5.725,56.119],[-5.97,55.815]]],[[[-6.199,58.363],[-6.326,58.189],[-6.555,58.093],[-6.403,58.076],[-6.425,58.021],[-6.957,57.75],[-7.083,57.814],[-6.857,57.924],[-7.057,58.003],[-6.985,58.05],[-7.088,58.095],[-7.028,58.222],[-6.726,58.189],[-6.776,58.302],[-6.237,58.503],[-6.199,58.363]]],[[[-6.279,56.965],[-6.433,57.018],[-6.322,57.051],[-6.279,56.965]]],[[[-6.145,57.505],[-6.136,57.314],[-5.672,57.253],[-5.949,57.045],[-6.015,57.052],[-6.034,57.201],[-6.323,57.202],[-6.442,57.327],[-6.761,57.442],[-6.358,57.667],[-6.247,57.651],[-6.145,57.505]]],[[[-7.206,57.683],[-7.093,57.627],[-7.183,57.533],[-7.515,57.602],[-7.206,57.683]]],[[[-7.25,57.115],[-7.381,57.131],[-7.411,57.381],[-7.267,57.372],[-7.25,57.115]]],[[[-7.417,56.965],[-7.543,56.972],[-7.455,57.019],[-7.417,56.965]]],[[[-2.668,51.623],[-2.662,51.802],[-2.954,51.915],[-3.107,52.065],[-2.976,52.316],[-3.211,52.44],[-2.985,52.543],[-3.115,52.574],[-2.987,52.744],[-3.144,52.806],[-3.115,52.871],[-2.981,52.952],[-2.721,52.928],[-3.166,53.395],[-3.065,53.427],[-2.919,53.305],[-2.75,53.31],[-2.913,53.35],[-3.065,53.513],[-2.925,53.733],[-3.032,53.774],[-3.027,53.906],[-2.9,53.961],[-2.846,54.135],[-3.166,54.128],[-3.569,54.468],[-3.592,54.564],[-3.465,54.773],[-3.268,54.907],[-3.036,54.953],[-3.039,55.015],[-2.544,55.317],[-2.203,55.446],[-2.321,55.628],[-2.017,55.808],[-1.655,55.57],[-1.232,54.704],[-0.671,54.504],[-0.084,54.118],[-0.206,54.022],[0.115,53.609],[-0.27,53.737],[-0.66,53.724],[-0.294,53.692],[0.271,53.335],[0.356,53.16],[0.046,52.906],[0.28,52.809],[0.559,52.967],[1.271,52.925],[1.657,52.754],[1.743,52.579],[1.591,52.12],[1.232,51.971],[1.274,51.845],[0.752,51.73],[0.898,51.689],[0.891,51.571],[0.425,51.466],[0.889,51.36],[1.415,51.363],[1.398,51.182],[1.044,51.047],[0.96,50.926],[0.3,50.776],[-0.785,50.765],[-1.416,50.897],[-1.334,50.821],[-1.517,50.747],[-2.031,50.725],[-1.962,50.628],[-2.036,50.603],[-2.433,50.599],[-2.999,50.717],[-3.405,50.632],[-3.68,50.24],[-4.195,50.393],[-4.728,50.29],[-5.119,50.038],[-5.434,50.104],[-5.622,50.051],[-5.656,50.132],[-4.894,50.534],[-4.583,50.776],[-4.523,50.977],[-4.296,51.027],[-4.188,51.189],[-3.136,51.205],[-2.433,51.741],[-2.668,51.623]]],[[[-1.066,50.69],[-1.251,50.589],[-1.563,50.666],[-1.313,50.773],[-1.066,50.69]]]]}},{"type":"Feature","properties":{"zone":"BG","role":"neighbour"},"geometry":{"type":"MultiPolygon","coordinates":[[[[26.333,41.713],[26.054,41.702],[26.176,41.432],[25.882,41.304],[25.239,41.241],[24.886,41.401],[24.774,41.348],[24.58,41.441],[24.51,41.562],[24.077,41.536],[24.035,41.451],[23.612,41.371],[22.917,41.336],[23.009,41.74],[22.838,42.019],[22.531,42.129],[22.345,42.313],[22.533,42.458],[22.425,42.573],[22.483,42.734],[22.427,42.814],[22.727,42.887],[22.981,43.199],[22.519,43.474],[22.349,43.808],[22.4,43.993],[22.593,44.064],[22.692,44.228],[23.031,44.093],[22.886,43.995],[22.889,43.84],[23.485,43.881],[25.403,43.65],[25.781,43.732],[26.151,44.012],[27.027,44.177],[27.384,44.015],[27.633,44.03],[27.722,43.949],[27.912,43.993],[27.981,43.849],[28.221,43.762],[28.578,43.741],[28.56,43.454],[28.473,43.367],[28.322,43.428],[28.119,43.392],[28.018,43.233],[27.904,43.202],[27.892,42.711],[27.733,42.715],[27.628,42.629],[27.65,42.558],[27.453,42.48],[27.719,42.415],[27.756,42.258],[28.017,41.973],[27.812,41.995],[27.546,41.901],[27.273,42.092],[27.047,42.083],[26.939,41.996],[26.606,41.967],[26.526,41.824],[26.334,41.79],[26.333,41.713]]]]}},{"type":"Feature","properties":{"zone":"CZ","role":"neighbour"},"geometry":{"type":"MultiPolygon","coordinates":[[[[14.81,50.858],[14.982,50.859],[14.961,50.993],[15.144,51.012],[15.27,50.953],[15.356,50.775],[15.792,50.743],[15.971,50.679],[15.982,50.604],[16.332,50.644],[16.426,50.568],[16.2,50.406],[16.344,50.37],[16.661,50.093],[17.015,50.218],[16.893,50.433],[17.424,50.241],[17.708,50.311],[17.748,50.218],[17.589,50.163],[17.633,50.106],[17.839,49.974],[18.032,50.003],[18.002,50.047],[18.292,49.908],[18.559,49.907],[18.618,49.714],[18.788,49.669],[18.833,49.51],[18.536,49.482],[18.161,49.259],[18.076,49.047],[17.727,48.863],[17.167,48.86],[16.945,48.604],[16.873,48.719],[16.52,48.806],[16.358,48.727],[16.085,48.743],[15.818,48.872],[15.004,49.01],[14.94,48.763],[14.8,48.777],[14.676,48.576],[14.458,48.643],[14.325,48.559],[14.041,48.601],[13.609,48.946],[13.427,48.96],[13.0,49.295],[12.644,49.429],[12.384,49.743],[12.524,49.905],[12.247,50.045],[12.076,50.315],[12.3,50.161],[12.51,50.389],[12.953,50.404],[13.01,50.493],[13.448,50.597],[13.557,50.707],[14.347,50.88],[14.382,50.921],[14.238,50.982],[14.288,51.037],[14.482,51.037],[14.574,50.975],[14.55,50.912],[14.629,50.921],[14.613,50.846],[14.81,50.858]]]]}},{"type":"Feature","properties":{"zone":"GR","role":"neighbour"},"geometry":{"type":"MultiPolygon","coordinates":[[[[20.965,40.849],[21.582,40.866],[22.048,41.152],[22.705,41.14],[22.781,41.335],[23.612,41.371],[24.233,41.562],[24.51,41.562],[24.58,41.441],[24.774,41.348],[24.886,41.401],[25.286,41.239],[26.121,41.358],[26.163,41.529],[26.048,41.689],[26.226,41.75],[26.595,41.612],[26.636,41.4],[26.61,41.331],[26.321,41.246],[26.359,40.965],[26.082,40.736],[26.006,40.804],[26.054,40.831],[25.538,40.87],[25.138,41.01],[24.802,40.853],[24.629,40.859],[24.505,40.962],[24.11,40.728],[23.732,40.752],[23.7,40.674],[23.915,40.539],[23.823,40.507],[23.868,40.414],[24.002,40.386],[24.011,40.449],[24.394,40.152],[24.3,40.128],[24.169,40.275],[23.937,40.365],[23.73,40.359],[23.716,40.255],[23.991,40.119],[23.991,39.954],[23.827,40.009],[23.675,40.218],[23.438,40.279],[23.34,40.228],[23.364,40.15],[23.748,39.93],[23.361,39.961],[23.299,40.235],[22.888,40.386],[22.822,40.502],[22.983,40.553],[22.91,40.645],[22.579,40.468],[22.661,40.369],[22.571,40.054],[23.344,39.18],[23.052,39.098],[23.217,39.18],[23.135,39.297],[22.936,39.361],[22.826,39.221],[22.998,39.07],[22.964,39.009],[23.073,39.036],[22.792,38.878],[22.525,38.858],[23.042,38.747],[23.105,38.638],[23.306,38.653],[23.285,38.556],[23.382,38.535],[23.335,38.504],[23.567,38.501],[23.673,38.356],[23.951,38.291],[24.081,38.166],[23.989,38.123],[24.087,37.785],[24.033,37.652],[23.561,37.973],[23.575,38.047],[22.995,37.882],[23.182,37.809],[23.121,37.741],[23.169,37.614],[23.337,37.535],[23.312,37.617],[23.399,37.638],[23.395,37.515],[23.526,37.439],[23.263,37.401],[23.169,37.3],[23.073,37.355],[23.132,37.449],[22.726,37.566],[23.114,36.781],[23.036,36.649],[23.196,36.433],[22.972,36.52],[22.787,36.793],[22.686,36.809],[22.577,36.783],[22.484,36.607],[22.491,36.391],[22.355,36.512],[22.388,36.706],[22.138,36.917],[22.153,37.021],[21.943,36.993],[21.97,36.795],[21.883,36.727],[21.707,36.818],[21.71,36.943],[21.57,37.116],[21.675,37.396],[21.106,37.878],[21.326,38.021],[21.374,38.221],[21.622,38.155],[21.849,38.341],[22.867,37.94],[22.975,37.979],[22.875,38.049],[23.173,38.079],[23.223,38.159],[22.806,38.227],[22.646,38.39],[22.563,38.294],[22.402,38.453],[22.382,38.343],[22.189,38.323],[21.958,38.412],[21.518,38.296],[21.323,38.496],[21.337,38.396],[21.156,38.304],[20.988,38.664],[20.86,38.804],[20.729,38.81],[20.805,38.868],[20.77,38.959],[21.085,38.864],[21.177,38.876],[21.16,38.998],[21.085,39.063],[21.058,39.009],[20.845,39.037],[20.822,39.114],[20.743,39.029],[20.832,38.964],[20.735,38.95],[20.482,39.283],[20.236,39.399],[20.264,39.509],[20.134,39.53],[20.182,39.624],[20.0,39.694],[20.246,39.663],[20.28,39.804],[20.397,39.818],[20.298,39.987],[20.648,40.094],[20.771,40.422],[21.019,40.559],[20.965,40.849]]],[[[26.321,35.315],[26.278,35.1],[26.147,35.002],[25.019,34.932],[24.739,34.932],[24.743,35.077],[24.402,35.191],[23.518,35.294],[23.58,35.576],[23.718,35.513],[23.742,35.687],[23.817,35.535],[24.183,35.586],[24.183,35.513],[24.072,35.498],[24.252,35.479],[24.34,35.348],[24.721,35.427],[25.454,35.294],[25.766,35.336],[25.713,35.183],[25.795,35.115],[26.061,35.233],[26.179,35.207],[26.321,35.315]]],[[[27.212,35.521],[27.136,35.404],[27.068,35.589],[27.221,35.829],[27.157,35.634],[27.212,35.521]]],[[[23.012,36.308],[23.104,36.237],[22.991,36.137],[22.9,36.328],[22.945,36.389],[23.012,36.308]]],[[[28.24,36.433],[28.09,36.055],[27.733,35.915],[27.757,36.084],[27.684,36.158],[27.9,36.34],[28.24,36.433]]],[[[25.382,36.48],[25.479,36.424],[25.465,36.342],[25.362,36.357],[25.437,36.391],[25.382,36.48]]],[[[27.397,36.439],[27.445,36.405],[27.378,36.382],[27.297,36.465],[27.397,36.439]]],[[[26.362,36.638],[26.466,36.583],[26.301,36.513],[26.261,36.588],[26.404,36.59],[26.362,36.638]]],[[[27.87,36.59],[27.843,36.528],[27.76,36.576],[27.842,36.645],[27.87,36.59]]],[[[24.474,36.747],[24.533,36.768],[24.538,36.681],[24.327,36.651],[24.354,36.754],[24.427,36.699],[24.409,36.761],[24.474,36.747]]],[[[25.273,36.72],[25.307,36.795],[25.409,36.712],[25.373,36.654],[25.273,36.72]]],[[[27.281,36.908],[27.356,36.863],[26.992,36.754],[26.973,36.679],[26.918,36.716],[27.281,36.908]]],[[[26.006,36.939],[26.073,36.892],[25.739,36.795],[26.006,36.939]]],[[[24.704,37.035],[24.766,36.949],[24.711,36.904],[24.642,37.028],[24.704,37.035]]],[[[26.912,36.946],[26.954,37.028],[26.89,37.09],[27.044,36.996],[26.912,36.946]]],[[[25.28,37.049],[25.103,37.013],[25.239,37.152],[25.293,37.152],[25.28,37.049]]],[[[25.526,37.196],[25.581,37.018],[25.45,36.918],[25.342,37.083],[25.526,37.196]]],[[[24.444,37.179],[24.521,37.204],[24.532,37.13],[24.423,37.124],[24.444,37.179]]],[[[24.368,37.412],[24.436,37.487],[24.483,37.412],[24.368,37.31],[24.368,37.412]]],[[[25.395,37.418],[25.307,37.412],[25.313,37.488],[25.463,37.47],[25.395,37.418]]],[[[24.943,37.435],[24.882,37.364],[24.895,37.51],[24.943,37.435]]],[[[25.091,37.583],[24.998,37.682],[25.259,37.59],[25.216,37.533],[25.091,37.583]]],[[[24.375,37.686],[24.396,37.625],[24.275,37.532],[24.375,37.686]]],[[[26.362,37.686],[26.231,37.571],[25.976,37.516],[26.074,37.638],[26.362,37.686]]],[[[23.546,37.774],[23.484,37.679],[23.424,37.762],[23.546,37.774]]],[[[27.048,37.727],[26.797,37.645],[26.708,37.714],[26.598,37.677],[26.58,37.741],[26.806,37.815],[27.068,37.774],[27.048,37.727]]],[[[20.901,37.792],[20.996,37.699],[20.894,37.733],[20.815,37.652],[20.619,37.864],[20.709,37.925],[20.901,37.792]]],[[[24.992,37.768],[24.958,37.686],[24.694,37.966],[24.779,38.0],[24.954,37.906],[24.992,37.768]]],[[[23.408,37.899],[23.498,37.967],[23.429,37.988],[23.573,37.953],[23.408,37.899]]],[[[20.734,38.062],[20.51,38.111],[20.445,38.276],[20.425,38.175],[20.345,38.182],[20.4,38.364],[20.53,38.337],[20.538,38.474],[20.631,38.258],[20.682,38.282],[20.798,38.131],[20.734,38.062]]],[[[20.716,38.392],[20.764,38.323],[20.706,38.318],[20.619,38.481],[20.716,38.392]]],[[[26.164,38.543],[26.112,38.223],[26.01,38.157],[25.89,38.221],[25.989,38.379],[25.849,38.58],[26.164,38.543]]],[[[20.585,38.618],[20.585,38.745],[20.686,38.85],[20.716,38.627],[20.585,38.618]]],[[[24.677,38.81],[24.567,38.763],[24.557,38.846],[24.436,38.878],[24.461,38.968],[24.677,38.81]]],[[[24.588,38.159],[24.567,37.988],[24.372,37.972],[24.204,38.09],[24.042,38.402],[23.649,38.406],[23.614,38.558],[23.202,38.83],[22.834,38.845],[23.299,39.042],[23.594,38.77],[24.156,38.653],[24.252,38.228],[24.588,38.159]]],[[[23.67,39.118],[23.601,39.214],[23.793,39.124],[23.67,39.118]]],[[[26.612,39.049],[26.539,39.019],[26.489,39.114],[26.437,39.104],[26.521,38.979],[26.166,39.022],[26.088,39.083],[26.28,39.196],[26.064,39.091],[25.842,39.228],[26.164,39.379],[26.362,39.379],[26.612,39.049]]],[[[20.092,39.434],[20.106,39.365],[19.912,39.43],[19.626,39.748],[19.948,39.79],[19.845,39.653],[19.928,39.625],[19.937,39.473],[20.092,39.434]]],[[[25.45,40.036],[25.349,39.788],[25.251,39.919],[25.215,39.803],[25.047,39.838],[25.033,39.995],[25.285,39.953],[25.45,40.036]]],[[[25.691,40.448],[25.567,40.4],[25.444,40.482],[25.576,40.515],[25.691,40.448]]],[[[24.786,40.735],[24.78,40.612],[24.642,40.571],[24.517,40.639],[24.642,40.804],[24.786,40.735]]],[[[26.599,37.355],[26.546,37.277],[26.536,37.373],[26.599,37.355]]]]}},{"type":"Feature","properties":{"zone":"HR","role":"neighbour"},"geometry":{"type":"MultiPolygon","coordinates":[[[[16.515,46.502],[16.838,46.382],[17.29,45.985],[17.591,45.936],[17.858,45.772],[18.404,45.742],[18.656,45.908],[18.901,45.931],[18.845,45.816],[18.968,45.669],[18.904,45.573],[19.106,45.512],[19.01,45.499],[18.977,45.371],[19.408,45.203],[19.122,45.196],[19.045,45.137],[19.132,44.953],[18.89,44.861],[18.684,45.085],[18.517,45.056],[18.238,45.157],[17.836,45.064],[17.685,45.164],[17.187,45.149],[16.924,45.285],[16.812,45.181],[16.529,45.222],[16.316,45.001],[16.02,45.214],[15.792,45.19],[15.728,44.769],[16.028,44.625],[16.006,44.541],[16.116,44.521],[16.327,44.082],[17.031,43.548],[17.271,43.463],[17.29,43.303],[17.628,43.047],[17.635,42.95],[17.516,42.959],[17.502,43.031],[16.881,43.406],[16.391,43.511],[16.434,43.55],[15.959,43.504],[15.95,43.689],[15.706,43.763],[15.145,44.195],[15.141,44.282],[15.295,44.251],[15.261,44.333],[15.529,44.272],[15.007,44.57],[14.884,44.724],[14.922,44.959],[14.853,45.094],[14.571,45.294],[14.312,45.344],[14.151,44.977],[14.069,44.95],[14.04,45.039],[14.0,44.813],[13.89,44.833],[13.903,44.772],[13.623,45.073],[13.726,45.135],[13.596,45.145],[13.61,45.32],[13.507,45.512],[13.889,45.424],[13.972,45.514],[14.373,45.478],[14.581,45.668],[14.797,45.465],[14.923,45.515],[15.139,45.43],[15.325,45.453],[15.269,45.602],[15.374,45.64],[15.255,45.723],[15.676,45.842],[15.698,46.036],[15.59,46.114],[15.64,46.208],[16.019,46.299],[16.058,46.378],[16.276,46.373],[16.235,46.493],[16.344,46.547],[16.515,46.502]]],[[[18.437,42.559],[18.496,42.416],[17.893,42.791],[17.721,42.826],[17.749,42.772],[17.002,43.051],[17.741,42.839],[17.666,42.905],[17.812,42.91],[17.858,42.817],[18.437,42.559]]],[[[16.858,42.784],[16.936,42.756],[16.834,42.731],[16.858,42.784]]],[[[17.132,42.97],[17.193,42.914],[16.851,42.901],[16.632,42.983],[17.132,42.97]]],[[[16.241,43.072],[16.087,43.011],[16.049,43.065],[16.241,43.072]]],[[[16.693,43.127],[16.372,43.196],[16.583,43.189],[16.521,43.229],[17.193,43.127],[16.693,43.127]]],[[[16.501,43.284],[16.406,43.333],[16.426,43.394],[16.892,43.312],[16.501,43.284]]],[[[14.877,44.56],[14.734,44.703],[14.938,44.594],[15.076,44.484],[14.911,44.545],[15.254,44.34],[15.129,44.312],[14.877,44.56]]],[[[14.446,44.566],[14.512,44.482],[14.363,44.573],[14.336,44.717],[14.446,44.566]]],[[[14.74,44.778],[14.658,44.799],[14.739,44.853],[14.859,44.717],[14.74,44.778]]],[[[14.514,44.662],[14.428,44.657],[14.294,44.909],[14.411,44.956],[14.278,45.113],[14.314,45.172],[14.473,44.971],[14.514,44.662]]],[[[14.723,44.943],[14.425,45.087],[14.53,45.135],[14.549,45.249],[14.8,45.005],[14.723,44.943]]]]}},{"type":"Feature","properties":{"zone":"HU","role":"neighbour"},"geometry":{"type":"MultiPolygon","coordinates":[[[[22.878,47.947],[22.638,47.772],[22.273,47.724],[22.008,47.517],[22.002,47.394],[21.633,47.023],[21.502,46.704],[21.301,46.604],[21.281,46.416],[21.051,46.236],[20.82,46.272],[20.664,46.138],[20.469,46.174],[20.243,46.108],[19.55,46.164],[19.263,45.981],[19.088,46.019],[18.982,45.922],[18.656,45.908],[18.404,45.742],[17.858,45.772],[17.591,45.936],[17.345,45.956],[16.838,46.382],[16.515,46.502],[16.368,46.643],[16.325,46.839],[16.094,46.863],[16.275,47.004],[16.486,46.999],[16.425,47.024],[16.51,47.138],[16.413,47.187],[16.473,47.277],[16.434,47.397],[16.641,47.453],[16.689,47.538],[16.63,47.622],[16.408,47.661],[16.568,47.754],[16.797,47.675],[17.075,47.708],[17.004,47.863],[17.185,48.02],[17.826,47.75],[18.693,47.778],[18.816,47.833],[18.743,47.971],[18.838,48.04],[19.428,48.086],[19.623,48.227],[19.929,48.13],[20.324,48.28],[20.482,48.526],[20.8,48.569],[21.109,48.489],[21.425,48.561],[21.759,48.334],[22.272,48.403],[22.357,48.243],[22.481,48.243],[22.605,48.097],[22.801,48.091],[22.878,47.947]]]]}},{"type":"Feature","properties":{"zone":"IRL","role":"neighbour"},"geometry":{"type":"MultiPolygon","coordinates":[[[[-9.948,53.913],[-10.266,53.978],[-9.996,54.004],[-9.948,53.913]]],[[[-7.219,55.092],[-7.377,55.028],[-7.55,54.768],[-7.911,54.698],[-7.754,54.595],[-8.145,54.454],[-7.855,54.215],[-7.607,54.144],[-7.325,54.133],[-7.008,54.407],[-6.647,54.163],[-6.65,54.059],[-6.176,54.054],[-6.348,53.941],[-6.142,53.578],[-6.027,52.927],[-6.217,52.543],[-6.463,52.345],[-6.325,52.247],[-6.89,52.159],[-6.966,52.25],[-7.003,52.166],[-7.527,52.099],[-8.058,51.826],[-8.409,51.889],[-8.336,51.793],[-8.408,51.712],[-9.296,51.498],[-9.835,51.483],[-9.58,51.689],[-10.121,51.601],[-9.599,51.874],[-10.084,51.771],[-10.341,51.799],[-10.379,51.869],[-9.91,52.123],[-10.39,52.135],[-10.357,52.207],[-10.132,52.282],[-9.772,52.25],[-9.906,52.404],[-9.632,52.547],[-8.783,52.68],[-8.99,52.755],[-9.175,52.635],[-9.561,52.654],[-9.917,52.57],[-9.465,52.823],[-9.394,52.896],[-9.462,52.947],[-9.299,53.098],[-8.93,53.207],[-9.514,53.238],[-9.626,53.334],[-9.876,53.343],[-9.795,53.395],[-10.091,53.413],[-10.117,53.549],[-9.721,53.604],[-9.91,53.658],[-9.902,53.727],[-9.578,53.805],[-9.579,53.88],[-9.914,53.864],[-9.856,54.095],[-9.934,54.075],[-9.977,54.187],[-10.093,54.156],[-10.056,54.258],[-9.562,54.309],[-9.146,54.21],[-9.002,54.288],[-8.546,54.241],[-8.623,54.347],[-8.23,54.507],[-8.133,54.641],[-8.457,54.609],[-8.764,54.681],[-8.377,54.889],[-8.393,55.02],[-8.275,55.146],[-7.751,55.186],[-7.763,55.248],[-7.667,55.256],[-7.557,55.122],[-7.659,54.971],[-7.478,55.047],[-7.518,55.248],[-7.302,55.299],[-7.366,55.36],[-7.309,55.366],[-6.962,55.238],[-7.219,55.092]]]]}},{"type":"Feature","properties":{"zone":"IT_CALA","role":"neighbour"},"geometry":{"type":"MultiPolygon","coordinates":[[[[16.561,38.416],[16.306,38.277],[16.063,37.933],[15.761,37.925],[15.635,38.009],[15.633,38.22],[15.813,38.301],[15.905,38.474],[15.837,38.649],[16.153,38.731],[16.222,38.857],[16.083,39.075],[15.995,39.439],[15.806,39.696],[15.746,39.925],[15.841,40.004],[16.021,39.987],[16.069,39.907],[16.354,39.901],[16.421,40.133],[16.64,40.119],[16.632,39.966],[16.492,39.805],[16.516,39.69],[17.159,39.406],[17.172,38.961],[16.586,38.798],[16.561,38.416]]]]}},{"type":"Feature","properties":{"zone":"IT_CNOR","role":"neighbour"},"geometry":{"type":"MultiPolygon","coordinates":[[[[10.407,42.769],[10.416,42.709],[10.101,42.784],[10.412,42.873],[10.407,42.769]]],[[[13.761,42.869],[13.412,42.695],[13.194,42.735],[13.234,42.844],[12.972,42.889],[12.907,42.972],[12.758,43.461],[12.609,43.429],[12.309,43.552],[12.359,43.619],[12.205,43.617],[12.037,43.417],[12.215,43.295],[11.923,43.138],[11.951,42.893],[11.75,42.806],[11.787,42.651],[11.588,42.566],[11.602,42.447],[11.451,42.374],[11.227,42.422],[11.156,42.366],[11.087,42.418],[11.18,42.456],[11.158,42.564],[10.944,42.743],[10.731,42.804],[10.764,42.918],[10.5,42.94],[10.528,43.247],[10.317,43.493],[10.21,43.92],[9.687,44.367],[9.936,44.47],[10.57,44.126],[10.707,44.162],[10.919,44.068],[10.991,44.14],[11.246,44.107],[11.2,44.157],[11.419,44.232],[11.746,44.13],[11.651,44.013],[11.709,43.885],[12.068,43.754],[12.286,43.769],[12.483,43.929],[12.675,43.843],[12.804,43.967],[13.616,43.56],[13.906,42.902],[13.761,42.869]]],[[[10.389,42.763],[10.416,42.709],[10.101,42.784],[10.412,42.873],[10.389,42.763]]],[[[12.882,42.572],[12.537,42.369],[12.439,42.389],[12.236,42.648],[11.949,42.692],[11.889,42.85],[11.75,42.806],[11.787,42.651],[11.588,42.566],[11.599,42.445],[11.451,42.374],[11.107,42.391],[11.188,42.48],[11.158,42.564],[10.944,42.743],[10.731,42.804],[10.764,42.918],[10.5,42.94],[10.528,43.247],[10.317,43.493],[10.21,43.92],[9.689,44.37],[9.936,44.47],[10.57,44.126],[10.707,44.162],[10.919,44.068],[10.991,44.14],[11.246,44.107],[11.2,44.157],[11.419,44.232],[11.746,44.13],[11.651,44.013],[11.709,43.885],[12.068,43.754],[12.286,43.769],[12.483,43.929],[12.675,43.843],[12.804,43.967],[13.516,43.632],[13.625,43.547],[13.906,42.902],[13.536,42.811],[13.412,42.695],[13.194,42.735],[13.154,42.645],[12.882,42.572]]]]}},{"type":"Feature","properties":{"zone":"IT_CSUD","role":"neighbour"},"geometry":{"type":"MultiPolygon","coordinates":[[[[13.882,40.7],[13.863,40.762],[13.966,40.735],[13.882,40.7]]],[[[15.535,40.078],[15.361,39.999],[14.911,40.242],[14.998,40.398],[14.782,40.67],[14.343,40.571],[14.474,40.73],[14.294,40.839],[14.048,40.79],[14.021,40.922],[13.722,41.252],[13.544,41.207],[13.286,41.296],[13.068,41.222],[12.894,41.399],[12.635,41.447],[12.223,41.751],[12.147,41.903],[11.827,42.034],[11.658,42.279],[11.451,42.374],[11.602,42.447],[11.588,42.566],[11.787,42.651],[11.753,42.809],[11.948,42.886],[11.945,43.168],[12.213,43.291],[12.037,43.417],[12.101,43.523],[12.205,43.617],[12.355,43.621],[12.309,43.552],[12.605,43.43],[12.758,43.461],[12.907,42.972],[12.972,42.889],[13.234,42.844],[13.194,42.735],[13.412,42.695],[13.536,42.811],[13.906,42.902],[14.075,42.599],[14.709,42.175],[14.748,42.018],[14.515,41.786],[14.276,41.905],[14.142,41.824],[14.183,41.763],[13.946,41.688],[14.009,41.553],[13.962,41.471],[14.099,41.39],[14.121,41.496],[14.223,41.495],[14.588,41.37],[14.995,41.482],[15.097,41.426],[15.075,41.33],[15.262,41.248],[15.203,41.153],[15.559,41.055],[15.537,40.933],[15.369,40.899],[15.344,40.821],[15.538,40.485],[15.791,40.252],[15.647,40.047],[15.535,40.078]]],[[[13.882,40.7],[13.863,40.762],[13.966,40.735],[13.882,40.7]]],[[[15.61,40.073],[15.361,39.999],[14.911,40.242],[14.998,40.398],[14.782,40.67],[14.343,40.571],[14.474,40.73],[14.294,40.839],[14.048,40.79],[14.021,40.922],[13.722,41.252],[13.544,41.207],[13.286,41.296],[13.068,41.222],[12.894,41.399],[12.635,41.447],[12.223,41.751],[12.147,41.903],[11.827,42.034],[11.472,42.419],[11.602,42.447],[11.588,42.566],[11.787,42.651],[11.75,42.806],[11.889,42.85],[11.954,42.687],[12.236,42.648],[12.301,42.49],[12.533,42.368],[12.902,42.61],[13.154,42.645],[13.194,42.735],[13.412,42.695],[13.536,42.811],[13.906,42.902],[14.075,42.599],[14.763,42.078],[14.515,41.786],[14.276,41.905],[14.142,41.824],[14.183,41.763],[13.946,41.688],[14.009,41.553],[13.962,41.471],[14.099,41.39],[14.121,41.496],[14.223,41.495],[14.588,41.37],[14.995,41.482],[15.097,41.426],[15.075,41.33],[15.262,41.248],[15.203,41.153],[15.559,41.055],[15.537,40.933],[15.369,40.899],[15.344,40.821],[15.538,40.485],[15.789,40.262],[15.61,40.073]]]]}},{"type":"Feature","properties":{"zone":"IT_NORD","role":"neighbour"},"geometry":{"type":"MultiPolygon","coordinates":[[[[7.557,43.944],[7.69,44.067],[7.656,44.176],[7.331,44.125],[6.983,44.242],[6.87,44.363],[6.918,44.436],[6.836,44.534],[6.96,44.683],[7.055,44.685],[7.007,44.822],[6.745,44.908],[6.603,45.103],[7.108,45.259],[7.161,45.411],[6.785,45.76],[7.008,45.921],[7.154,45.877],[7.541,45.984],[7.844,45.919],[8.111,46.127],[8.087,46.272],[8.399,46.452],[8.438,46.235],[8.809,46.09],[8.768,45.983],[8.871,45.947],[8.9,45.826],[9.002,45.821],[9.063,45.899],[9.002,46.039],[9.225,46.231],[9.282,46.497],[9.435,46.498],[9.536,46.299],[9.918,46.371],[10.076,46.22],[10.159,46.262],[10.092,46.329],[10.141,46.403],[10.026,46.446],[10.033,46.533],[10.192,46.627],[10.444,46.538],[10.459,46.624],[10.369,46.672],[10.454,46.864],[10.997,46.769],[11.174,46.964],[11.735,46.971],[12.181,47.085],[12.127,46.909],[12.267,46.868],[12.405,46.69],[13.701,46.52],[13.365,46.29],[13.41,46.208],[13.637,46.18],[13.462,46.006],[13.606,45.985],[13.566,45.83],[13.779,45.743],[13.895,45.632],[13.848,45.585],[13.712,45.593],[13.808,45.614],[13.574,45.79],[13.402,45.675],[13.369,45.745],[13.119,45.772],[13.085,45.642],[12.424,45.438],[12.582,45.553],[12.397,45.539],[12.154,45.313],[12.23,45.204],[12.307,45.231],[12.369,45.011],[12.369,45.066],[12.534,44.97],[12.445,44.821],[12.407,44.891],[12.416,44.803],[12.266,44.827],[12.247,44.712],[12.369,44.251],[12.754,43.972],[12.68,43.845],[12.482,43.983],[12.286,43.769],[11.969,43.773],[11.709,43.885],[11.651,44.013],[11.741,44.132],[11.403,44.235],[11.2,44.157],[11.229,44.103],[10.582,44.123],[9.866,44.483],[9.687,44.364],[10.053,44.1],[10.028,44.049],[9.845,44.109],[9.832,44.042],[9.231,44.354],[9.211,44.305],[8.762,44.432],[8.466,44.304],[8.168,43.956],[7.96,43.853],[7.531,43.784],[7.478,43.866],[7.557,43.944]]]]}},{"type":"Feature","properties":{"zone":"IT_SARD","role":"neighbour"},"geometry":{"type":"MultiPolygon","coordinates":[[[[8.456,39.074],[8.41,38.962],[8.346,39.098],[8.456,39.074]]],[[[9.792,40.557],[9.8,40.456],[9.626,40.263],[9.732,40.084],[9.566,39.149],[9.519,39.105],[9.014,39.264],[9.08,39.225],[9.026,38.995],[8.853,38.878],[8.717,38.933],[8.641,38.864],[8.56,39.057],[8.373,39.222],[8.444,39.757],[8.566,39.701],[8.504,39.722],[8.555,39.853],[8.395,39.913],[8.377,40.034],[8.49,40.104],[8.38,40.469],[8.292,40.595],[8.147,40.593],[8.193,40.964],[8.31,40.851],[8.521,40.827],[8.823,40.947],[9.231,41.263],[9.422,41.181],[9.443,41.092],[9.56,41.126],[9.512,41.016],[9.663,41.003],[9.504,40.927],[9.724,40.845],[9.658,40.8],[9.792,40.557]]]]}},{"type":"Feature","properties":{"zone":"IT_SICI","role":"neighbour"},"geometry":{"type":"MultiPolygon","coordinates":[[[[15.529,38.303],[15.648,38.267],[15.213,37.761],[15.092,37.477],[15.104,37.33],[15.252,37.258],[15.183,37.207],[15.332,37.012],[15.158,36.924],[15.094,36.655],[14.487,36.793],[14.279,37.044],[13.716,37.171],[13.174,37.487],[12.659,37.565],[12.427,37.797],[12.493,38.021],[12.705,38.111],[12.732,38.193],[12.901,38.028],[13.061,38.083],[13.101,38.19],[13.318,38.221],[13.391,38.103],[13.791,37.974],[14.021,38.049],[14.512,38.044],[14.907,38.188],[15.088,38.128],[15.237,38.265],[15.292,38.207],[15.529,38.303]]]]}},{"type":"Feature","properties":{"zone":"IT_SUD","role":"neighbour"},"geometry":{"type":"MultiPolygon","coordinates":[[[[16.761,40.27],[16.64,40.119],[16.421,40.133],[16.354,39.901],[16.069,39.907],[15.946,40.006],[15.746,39.925],[15.649,40.078],[15.789,40.262],[15.538,40.485],[15.344,40.821],[15.369,40.899],[15.537,40.933],[15.559,41.055],[15.203,41.153],[15.262,41.248],[15.075,41.33],[15.097,41.426],[14.995,41.482],[14.588,41.37],[14.121,41.496],[14.109,41.393],[14.035,41.396],[13.946,41.688],[14.183,41.763],[14.142,41.824],[14.276,41.905],[14.515,41.786],[14.763,42.078],[15.165,41.928],[16.14,41.92],[16.193,41.791],[15.9,41.615],[15.934,41.479],[18.007,40.651],[18.516,40.139],[18.347,39.798],[18.072,39.912],[17.863,40.286],[17.213,40.406],[17.323,40.498],[16.976,40.493],[16.761,40.27]]],[[[16.508,38.372],[16.169,38.143],[16.063,37.933],[15.646,37.988],[15.633,38.22],[15.813,38.301],[15.918,38.517],[15.837,38.649],[16.153,38.731],[16.222,38.857],[15.647,40.047],[15.789,40.262],[15.538,40.485],[15.344,40.821],[15.576,41.027],[15.203,41.153],[15.262,41.248],[15.075,41.33],[15.097,41.426],[14.995,41.482],[14.588,41.37],[14.121,41.496],[14.109,41.393],[14.035,41.396],[13.946,41.688],[14.183,41.763],[14.142,41.824],[14.276,41.905],[14.515,41.786],[14.763,42.078],[15.165,41.928],[16.14,41.92],[16.184,41.78],[15.9,41.615],[15.961,41.459],[17.057,41.082],[17.476,40.83],[18.007,40.651],[18.437,40.268],[18.516,40.104],[18.347,39.798],[18.072,39.912],[17.863,40.286],[17.399,40.331],[17.2,40.42],[17.323,40.498],[17.05,40.519],[16.912,40.445],[16.605,40.084],[16.632,39.966],[16.49,39.775],[16.546,39.661],[17.159,39.406],[17.125,39.091],[17.206,39.029],[17.104,38.899],[16.935,38.939],[16.586,38.798],[16.57,38.43],[16.508,38.372]]]]}},{"type":"Feature","properties":{"zone":"NIR","role":"neighbour"},"geometry":{"type":"MultiPolygon","coordinates":[[[[-6.218,54.089],[-6.65,54.059],[-6.647,54.163],[-7.008,54.407],[-7.325,54.133],[-7.607,54.144],[-7.855,54.215],[-8.145,54.454],[-7.754,54.595],[-7.911,54.698],[-7.55,54.768],[-7.377,55.028],[-7.219,55.092],[-7.101,55.048],[-6.947,55.183],[-6.475,55.241],[-6.129,55.217],[-5.717,54.817],[-5.879,54.641],[-5.583,54.663],[-5.47,54.5],[-5.484,54.442],[-5.671,54.55],[-5.656,54.382],[-5.558,54.371],[-5.607,54.273],[-5.826,54.236],[-6.019,54.051],[-6.218,54.089]]]]}},{"type":"Feature","properties":{"zone":"RO","role":"neighbour"},"geometry":{"type":"MultiPolygon","coordinates":[[[[22.878,47.947],[23.139,48.098],[23.461,47.971],[24.231,47.897],[24.542,47.944],[24.897,47.71],[25.08,47.743],[25.262,47.899],[26.173,47.993],[26.303,48.212],[26.689,48.275],[26.938,48.205],[27.169,47.983],[27.281,47.693],[27.576,47.46],[27.572,47.375],[28.069,46.989],[28.234,46.662],[28.246,46.428],[28.109,46.234],[28.083,46.015],[28.168,45.632],[28.062,45.594],[28.33,45.323],[28.71,45.227],[28.803,45.244],[28.79,45.321],[28.93,45.279],[29.322,45.444],[29.57,45.395],[29.7,45.162],[29.618,44.861],[29.156,44.784],[29.001,44.689],[28.975,44.745],[29.139,44.804],[29.044,44.866],[29.111,44.97],[28.983,45.012],[28.869,44.943],[28.946,44.765],[28.784,44.649],[28.898,44.717],[28.988,44.675],[28.758,44.627],[28.758,44.465],[28.925,44.621],[28.635,44.316],[28.672,43.997],[28.578,43.741],[28.221,43.762],[27.981,43.849],[27.912,43.993],[27.722,43.949],[27.633,44.03],[27.384,44.015],[27.027,44.177],[26.151,44.012],[25.781,43.732],[25.403,43.65],[23.485,43.881],[22.889,43.84],[22.886,43.995],[23.031,44.093],[22.691,44.229],[22.477,44.464],[22.58,44.565],[22.765,44.583],[22.426,44.734],[22.127,44.503],[21.994,44.659],[21.396,44.79],[21.356,44.857],[21.536,44.889],[21.351,44.998],[21.493,45.145],[20.767,45.479],[20.786,45.753],[20.688,45.743],[20.243,46.108],[20.469,46.174],[20.664,46.138],[20.799,46.268],[21.144,46.284],[21.281,46.416],[21.301,46.604],[21.502,46.704],[21.633,47.023],[22.002,47.394],[22.008,47.517],[22.273,47.724],[22.638,47.772],[22.878,47.947]]]]}},{"type":"Feature","properties":{"zone":"RS","role":"neighbour"},"geometry":{"type":"MultiPolygon","coordinates":[[[[20.243,46.108],[20.688,45.743],[20.786,45.753],[20.767,45.479],[21.493,45.145],[21.351,44.998],[21.536,44.889],[21.356,44.857],[21.396,44.79],[21.994,44.659],[22.127,44.503],[22.426,44.734],[22.765,44.583],[22.484,44.5],[22.692,44.228],[22.593,44.064],[22.4,43.993],[22.349,43.808],[22.519,43.474],[22.985,43.175],[22.727,42.887],[22.427,42.814],[22.483,42.734],[22.425,42.573],[22.537,42.478],[22.424,42.326],[22.269,42.37],[21.575,42.242],[21.516,42.342],[21.617,42.387],[21.764,42.67],[21.379,42.744],[21.408,42.847],[21.261,42.887],[21.093,43.091],[20.839,43.17],[20.819,43.257],[20.604,43.198],[20.644,43.052],[20.459,42.95],[20.476,42.856],[20.345,42.827],[20.337,42.907],[19.929,43.114],[19.598,43.176],[19.176,43.481],[19.253,43.589],[19.49,43.564],[19.507,43.647],[19.244,44.002],[19.529,43.977],[19.619,44.036],[19.117,44.344],[19.13,44.518],[19.377,44.863],[19.187,44.928],[19.016,44.866],[18.991,44.915],[19.132,44.953],[19.045,45.137],[19.408,45.203],[18.977,45.371],[19.01,45.499],[19.106,45.512],[18.904,45.573],[18.968,45.669],[18.855,45.857],[19.065,46.012],[19.263,45.981],[19.55,46.164],[20.243,46.108]]]]}},{"type":"Feature","properties":{"zone":"SI","role":"neighbour"},"geometry":{"type":"MultiPolygon","coordinates":[[[[13.643,45.459],[13.569,45.539],[13.895,45.632],[13.581,45.809],[13.606,45.985],[13.462,46.006],[13.637,46.18],[13.41,46.208],[13.365,46.29],[13.701,46.52],[14.54,46.379],[14.85,46.601],[15.062,46.65],[15.463,46.615],[15.636,46.718],[15.851,46.724],[16.017,46.671],[15.972,46.821],[16.094,46.863],[16.325,46.839],[16.376,46.629],[16.501,46.545],[16.264,46.516],[16.276,46.373],[16.058,46.378],[16.019,46.299],[15.64,46.208],[15.59,46.114],[15.698,46.036],[15.676,45.842],[15.255,45.723],[15.374,45.64],[15.269,45.602],[15.325,45.453],[15.139,45.43],[14.923,45.515],[14.797,45.465],[14.581,45.668],[14.373,45.478],[13.643,45.459]]]]}},{"type":"Feature","properties":{"zone":"SK","role":"neighbour"},"geometry":{"type":"MultiPolygon","coordinates":[[[[22.54,49.072],[22.31,48.682],[22.139,48.57],[22.096,48.379],[21.728,48.341],[21.425,48.561],[21.109,48.489],[20.8,48.569],[20.511,48.534],[20.324,48.28],[19.929,48.13],[19.623,48.227],[19.428,48.086],[18.838,48.04],[18.743,47.971],[18.816,47.833],[18.693,47.778],[17.742,47.765],[17.338,47.999],[17.07,48.036],[16.844,48.366],[17.025,48.746],[17.167,48.86],[17.727,48.863],[18.076,49.047],[18.161,49.259],[18.536,49.482],[18.932,49.504],[18.962,49.389],[19.142,49.394],[19.443,49.602],[19.627,49.402],[19.769,49.393],[19.786,49.188],[20.05,49.173],[20.136,49.309],[20.318,49.392],[20.69,49.4],[20.919,49.29],[21.073,49.357],[21.054,49.414],[21.261,49.449],[21.82,49.377],[22.041,49.197],[22.54,49.072]]]]}}]}